name1,name2,street1,street2,city,state,zip,zip4,county,phone,intake_prompt,intake1,intake2,website,latitude,longitude,type_facility,mh,psy,rtcc,rtca,ores,ph,omh,cmhc,msmh,ipt,cft,gt,cbt,dbt,idd,at,ect,tele,smon,smpd,smop,hi,res,phdt,op,vamc,tbg,ih,sf,md,mc,si,pi,mi,smha,swfs,scjj,sef,osf,clf,csbg,cmhg,vaf,cit,wi,ss,pa,ah,sp,co,gl,vet,adm,mf,cj,se,hv,trma,sed,smi,alz,ptsd,tbi,tay,ped,act,icm,cm,cdm,peer,coot,dec,es,fpsy,hs,imr,ipc,lad,nrt,nsc,prs,stu,sps,semp,sh,tpc,tcc,vrs,chld,yad,adlt,snr,itu,pvtp,pvtn,fqhc,sumh,cbhc,chlor,drope,fluph,halop,loxap,perph,pimoz,proch,thiot,thior,trifl,aripi,asena,brexp,carip,cloza,ilope,luras,olanz,olanzf,palip,queti,rispe,zipra,crt,emdr,kit,tms,peon,peoff,fg,pcf,dv,pefp,hivt,stdt,tbs,aot,msnh,ipsy,shp,vahc,antpych,aim,fed,mhc,hbt,hct,labt,vapn,vapp,vppd,nx,fx,f17,f19,f25,f28,f30,f31,f35,f36,f37,f4,f42,f43,f47,f66,f67,f70,f81,f92,n24,n40
CSB of Middle Georgia,Quentin Price Crisis Stablization Unit,118 Thomas Lane,Building 9,Dublin,GA,31021,,Laurens,478-275-6811 x1177,Intakes,478-275-6810,478-275-6811 x1176,http://www.csbmg.com/,32.5303429,-82.9268525,MH,1,,,1.0,,,,,,1.0,,1.0,1.0,1.0,1.0,1.0,,,,,,,1,,,,,,1.0,1.0,1.0,1.0,1.0,,1.0,,,,1.0,,,1.0,1.0,,1.0,1.0,1.0,1.0,,1.0,1.0,1.0,,1.0,1.0,1.0,1.0,1.0,,1.0,,1.0,,,1,,1.0,1.0,,1.0,1.0,1.0,,,1.0,1.0,,,1.0,1.0,1.0,1.0,1.0,,,,,,,1.0,1.0,1.0,,,,,1.0,,,,,1.0,,,,,,,,1.0,,,,,,,1.0,,,1.0,1.0,1.0,,,,,,,,,,,1.0,,1.0,,,,,,1.0,,,,1.0,1.0,1.0,1.0,,,,,,,,,,,,,,,,,,,,,,,,
Hillside Inc,,690 Courtenay Drive NE,,Atlanta,GA,30306,3421.0,Fulton,404-875-4551,Intake,404-875-4551 x1017,,http://www.hside.org,33.7901028,-84.3648764,MH,1,,1.0,,,,,,,1.0,1.0,1.0,1.0,1.0,,1.0,,1.0,1.0,,,,1,1.0,1.0,,,,1.0,1.0,,1.0,1.0,1.0,1.0,1.0,,1.0,1.0,1.0,,1.0,,,,,,1.0,,,1.0,,,,,,,1.0,1.0,,,1.0,,,1,,,1.0,,,,,1.0,1.0,,,,,,,,,,,,1.0,,,1.0,,,,,,1.0,,,,,,,,,,,,,,,,,,,,,,,,,,,,,,,,,,,,,,,,,,,,,,,,,,,,,1.0,,,,,,,,,,,,,,,,,,,,,,,,
Center for Discovery,,1364 Manget Way,,Atlanta,GA,30338,,DeKalb,866-944-9796,,,,http://centerfordiscovery.com/locations/dunwoody/,33.9413289,-84.3326352,MH,1,,1.0,,,,,,,1.0,1.0,1.0,1.0,1.0,,,,,,,,,1,,,,,,1.0,,,1.0,1.0,1.0,1.0,1.0,1.0,1.0,1.0,1.0,1.0,1.0,,,,,,,,,1.0,,,,,,,1.0,,,,1.0,,,1,,,1.0,,,,1.0,,1.0,,,,,,,,,,,,,,,1.0,,,,,1.0,,,1.0,,,,,,,,,,,,,,,,,,,,,,,,,,,,,,,,,,,,,,,,,,,,,,,,,,,1.0,,,,,,,,,,,,,,,,,,,,,,,,
Southern Live Oak Wellness,,1535 Mount Vernon Road,,Atlanta,GA,30338,,DeKalb,770-238-2674,,,,http://www.southernliveoakwellness.com,33.9446138,-84.3360869,MH,1,,,1.0,,,,,,1.0,1.0,1.0,1.0,1.0,1.0,1.0,,1.0,,,,,1,1.0,1.0,,,,1.0,,,,1.0,,,,,,,,,,,1.0,,,,,,1.0,1.0,,,,1.0,1.0,1.0,1.0,,1.0,,1.0,,1.0,1,,,1.0,,1.0,,1.0,1.0,1.0,1.0,,,,,1.0,,1.0,1.0,,1.0,,,,,1.0,1.0,1.0,,1.0,,,1.0,,1.0,,1.0,1.0,,1.0,1.0,1.0,1.0,1.0,1.0,1.0,1.0,1.0,1.0,1.0,1.0,1.0,1.0,1.0,1.0,1.0,1.0,1.0,,1.0,1.0,1.0,1.0,,,,1.0,1.0,,,,,,,,,1.0,,,,1.0,1.0,1.0,,,1.0,,,,,,,,,,,,,,,,,,,,,,
Cathedral Home for Children,,4989 North 3rd Street,,Laramie,WY,82072,,Albany,307-745-8997,,,,http://www.cathedralhome.org,41.3534026,-105.5890424,MH,1,,,,,,,,1.0,1.0,1.0,1.0,1.0,1.0,1.0,1.0,,,1.0,,,,1,,1.0,,,,1.0,1.0,,1.0,1.0,,1.0,1.0,1.0,1.0,1.0,1.0,1.0,1.0,,1.0,,,,,1.0,1.0,1.0,,,,,,,1.0,1.0,,,1.0,,,1,1.0,1.0,1.0,,,,,1.0,1.0,,,1.0,,,,,1.0,1.0,1.0,1.0,,,1.0,1.0,,,,,,1.0,,1.0,,1.0,,,,,,,,,,,1.0,,,,1.0,,,1.0,,,1.0,1.0,,,,,,,,,1.0,,,,,1.0,,,,,,1.0,,,1.0,,,,1.0,,,,,,,,,,,,,,,,,,,,,,,,
Rogers Behavioral Health,Oconomowoc,34700 Valley Road,,Oconomowoc,WI,53066,,Waukesha,262-646-4411,Intake,800-767-4411,,http://www.rogersbh.org,43.0843091,-88.4358343,MH,1,1.0,,,,,,,,1.0,1.0,1.0,1.0,1.0,1.0,1.0,,1.0,,,,1.0,1,,,,,,1.0,1.0,1.0,1.0,1.0,1.0,,,,,,1.0,,,,,1.0,,,1.0,,1.0,,,,,,,,1.0,,,,,,,1,,,1.0,,,,,,1.0,1.0,,,,1.0,1.0,,1.0,1.0,,,,1.0,,1.0,1.0,1.0,1.0,,,1.0,,1.0,,,,,,,,,,,,,,,,,,,,,,,,,,,,,,1.0,,,1.0,,,,,1.0,,,,,,1.0,,,,,,1.0,,,1.0,,,,,,,,,,,,,,,,,,,,,,
Safe Harbor,,201 West Laurel Street,,Brainerd,MN,56401,,Crow Wing,218-454-3844,,,,http://www.npmh.org,46.3546889,-94.21153,MH,1,,,1.0,,,,,,1.0,1.0,1.0,1.0,,,,,,,,,,1,,,,,,1.0,1.0,1.0,1.0,1.0,1.0,1.0,1.0,,1.0,1.0,1.0,1.0,1.0,1.0,1.0,1.0,,,1.0,,1.0,1.0,1.0,1.0,1.0,,1.0,1.0,1.0,,1.0,,1.0,1.0,,1,,,1.0,,1.0,,1.0,1.0,1.0,1.0,1.0,,,1.0,1.0,1.0,1.0,1.0,1.0,1.0,,1.0,,,1.0,1.0,1.0,,,1.0,,1.0,,,,,,,,,,,,,,,,,,,,,,,,,,,,,,,,,,,,,,,,,,,,,,,,,,,,,1.0,,,,,,,,,,,,,,,,,,,,,,
Thrive Behavioral Network,Milestones,620 9th Avenue West,,Alexandria,MN,56308,,Douglas,320-763-3466,,,,http://www.thrivebehavioralnetwork.com,45.8822109,-95.3863311,MH,1,,,1.0,,,,,,1.0,1.0,1.0,1.0,1.0,1.0,1.0,,,,,,,1,,,,,,1.0,1.0,,1.0,1.0,,1.0,1.0,1.0,,1.0,1.0,1.0,1.0,,1.0,1.0,,,,,1.0,1.0,1.0,,1.0,1.0,1.0,1.0,1.0,,1.0,,1.0,1.0,1.0,1,,,1.0,,1.0,1.0,1.0,1.0,1.0,1.0,1.0,1.0,,1.0,1.0,1.0,1.0,1.0,1.0,1.0,,1.0,1.0,,1.0,1.0,1.0,,1.0,,,1.0,,,,,1.0,,,,,,,,1.0,,,,1.0,,1.0,1.0,1.0,1.0,1.0,1.0,,,,,,1.0,,,,1.0,1.0,,,,,,,,,1.0,,,,,,,,,1.0,,,,,,,,,,,,,,,,,,,,,,
People Inc,Riverwind Crisis Residence,2708 119th Avenue NW,,Minneapolis,MN,55433,,Anoka,763-862-7944,,,,http://www.peopleincorporated.org,45.1860073,-93.3359212,MH,1,,,1.0,,,,,,,,,,,1.0,,,,1.0,,,,1,,,,,,1.0,1.0,,1.0,1.0,,1.0,,,,,1.0,,,,,,,,1.0,,1.0,1.0,1.0,1.0,,1.0,1.0,1.0,1.0,,1.0,,1.0,1.0,,1,,,,,1.0,,1.0,,1.0,1.0,1.0,,,1.0,,1.0,1.0,1.0,,,,,,,1.0,1.0,1.0,,,1.0,,1.0,,,,,,,,,,,,,,,,,,,,,,,,,,,,,,,,,,1.0,1.0,,,,,,,,,,,,,,,,1.0,,,,,,,,,,,,,,,,,,,,,,,,
Volunteers of America of Minnesota,Childrens Residential Treatment Center,2000 Hopkins Crossroad,,Hopkins,MN,55305,,Hennepin,612-870-4300,Intake,612-278-4221,,http://www.voamnwi.org/crtc,44.9636896,-93.4212358,MH,1,,1.0,,,,,,,1.0,1.0,1.0,1.0,1.0,,1.0,,,1.0,,,,1,,,,,,1.0,1.0,1.0,1.0,1.0,,1.0,1.0,1.0,1.0,1.0,1.0,,,,,,,,1.0,,,1.0,,,,,,,1.0,1.0,,,1.0,,1.0,1,,1.0,1.0,,1.0,1.0,1.0,1.0,1.0,1.0,,1.0,,1.0,1.0,,1.0,1.0,,,,,,1.0,,,,,,1.0,,,,1.0,,,1.0,1.0,1.0,,,,,,1.0,1.0,1.0,1.0,1.0,,1.0,1.0,1.0,1.0,1.0,1.0,1.0,,,,,,,,,,,,,,,,,,,1.0,,,,,,,1.0,,,,,,,,,,,,,,,,,,,,,,,,
People Inc,Anchor House,1593 Hewitt Avenue,,Saint Paul,MN,55104,,Ramsey,612-529-2040,Intake,612-529-2040 x2702,,http://www.peopleincorporated.org,44.9667187,-93.1678717,MH,1,,,1.0,,,,,,,,,,,1.0,,,,1.0,,,,1,,,,,,1.0,1.0,,1.0,1.0,,1.0,,,,,1.0,,,,,,,,1.0,,1.0,1.0,1.0,1.0,,1.0,1.0,1.0,1.0,,1.0,,1.0,1.0,,1,,,,,1.0,,1.0,,1.0,1.0,1.0,,,1.0,,1.0,1.0,1.0,,,,1.0,,,1.0,1.0,1.0,,,1.0,,1.0,,,,,,,,,,,,,,,,,,,,,,,,,,,,,,,,,,1.0,1.0,,,,,,,,,,,,,,,,1.0,,,,,,,,,,,,,,,,,,,,,,,,
People Inc,Maghakian Place,1100 Hancock Street,,Saint Paul,MN,55106,5336.0,Ramsey,651-793-6333,Intake,651-793-6333 x4034,,http://www.peopleincorporated.org,44.958817,-93.053071,MH,1,,,1.0,,,,,,,,,,,1.0,,,,1.0,,,,1,,,,,,1.0,1.0,,1.0,1.0,,1.0,,,,,1.0,,,,,,,,1.0,,1.0,1.0,1.0,1.0,,1.0,1.0,1.0,1.0,,1.0,,1.0,1.0,,1,,,,,1.0,,1.0,,1.0,1.0,1.0,,,1.0,,1.0,1.0,1.0,,,,,,,1.0,1.0,1.0,,,1.0,,1.0,,,,,,,,,,,,,,,,,,,,,,,,,,,,,,,,,,1.0,1.0,,,,,,,,,,,,,,,,1.0,,,,,,,,,,,,,,,,,,,,,,,,
People Inc,Diane Ahrens Crisis Residence,1784 Lacrosse Avenue,,Saint Paul,MN,55119,4808.0,Ramsey,651-645-9424,Intake,651-266-7900,,http://www.peopleincorporated.org,44.9710395,-93.0249645,MH,1,,,1.0,,,,,,,,,,,1.0,,,,1.0,,,,1,,,,,,1.0,1.0,,1.0,1.0,,1.0,,,,,1.0,,,,,,,,1.0,,1.0,1.0,1.0,1.0,,1.0,1.0,1.0,1.0,,1.0,,1.0,1.0,,1,,,,,1.0,,1.0,,1.0,1.0,1.0,,,1.0,,1.0,1.0,1.0,,,,,,,1.0,1.0,1.0,,,1.0,,1.0,,,,,,,,,,,,,,,,,,,,,,,,,,,,,,,,,,1.0,1.0,,,,,,,,,,,,,,,,1.0,,,,,,,,,,,,,,,,,,,,,,,,
Key Point Health Services Inc,,1012 North Point Road,,Baltimore,MD,21224,,Baltimore City,443-216-4800,,,,http://www.keypoint.org,39.2888523,-76.5088079,MH,1,,,,,,,,1.0,1.0,,1.0,1.0,1.0,,1.0,,1.0,,,,,1,,1.0,,,,1.0,1.0,1.0,1.0,1.0,1.0,1.0,1.0,1.0,1.0,1.0,1.0,1.0,1.0,1.0,,,1.0,,1.0,,1.0,1.0,1.0,1.0,1.0,1.0,1.0,1.0,1.0,1.0,1.0,,1.0,,1.0,1,,1.0,1.0,1.0,1.0,1.0,,1.0,1.0,1.0,1.0,,,,,1.0,1.0,,,1.0,,1.0,,1.0,1.0,1.0,1.0,1.0,,1.0,,1.0,,1.0,1.0,1.0,1.0,1.0,1.0,1.0,,,,1.0,,,,,1.0,1.0,1.0,1.0,1.0,1.0,1.0,1.0,1.0,,,,,,,,,,,,,,,,,,,1.0,,,,,,,,,1.0,,,,,,,,,,,,,,,,,,,,,,
Citywide Health Corporation,Citywide Behavioral Health ,17 Warren Road ,Suite 20-B ,Pikesville,MD,21208,,Baltimore,410-929-2314,,,,http://www.citywidebh.com,39.3684731,-76.7146696,MH,1,,,,,,1.0,,,1.0,1.0,1.0,1.0,1.0,1.0,1.0,,1.0,,,,,1,,1.0,,,,,1.0,1.0,,1.0,,,,,,,,,,,,,1.0,,1.0,,1.0,1.0,1.0,,,1.0,1.0,1.0,1.0,,1.0,1.0,1.0,1.0,1.0,1,,,,,1.0,1.0,,,1.0,1.0,,,,1.0,1.0,,1.0,,,,,1.0,,,1.0,,1.0,,1.0,,,1.0,,1.0,,1.0,1.0,1.0,1.0,,,,1.0,,1.0,1.0,1.0,1.0,1.0,1.0,1.0,1.0,1.0,1.0,1.0,1.0,1.0,,,,,,,,,1.0,1.0,,1.0,,,,,,,1.0,1.0,,1.0,,,,,,1.0,,,,,,,,,,,,,,,,,,,,,,
Sheppard Pratt Health System,Sheppard Pratt School and RTC,6501 North Charles Street,,Towson,MD,21204,,Baltimore,410-938-3000,Intake,410-938-5152,,http://www.Sheppardpratt.org,39.4025,-76.6344,MH,1,,1.0,,,,,,,1.0,1.0,1.0,1.0,1.0,1.0,1.0,,,1.0,,,,1,,,,,,1.0,1.0,,1.0,1.0,,1.0,1.0,1.0,1.0,,1.0,,,,,,,,1.0,1.0,1.0,1.0,,,,1.0,,1.0,1.0,1.0,,,1.0,,,1,,,1.0,,,1.0,1.0,1.0,1.0,,,,,,,,,,,,,,,1.0,1.0,,,,,1.0,,,,,,,,,,,,,,,,,,,,,,,,,,,,,,,,1.0,,,,,,,,,,,,,,1.0,,,,,,,1.0,,,,,,,,,,,,,,,,,,,,,,,,
Key Point Health Services Inc,Administration and Outpatient Clinic,135 North Parke Street,,Aberdeen,MD,21001,2428.0,Harford,443-625-1600,,,,http://www.KeyPoint.org,39.513193,-76.1628,MH,1,,,,,,,,1.0,1.0,,1.0,1.0,1.0,,1.0,,1.0,,,,,1,,1.0,,,,1.0,1.0,1.0,1.0,1.0,1.0,1.0,1.0,1.0,1.0,1.0,1.0,1.0,1.0,1.0,,,1.0,,1.0,,1.0,1.0,1.0,1.0,1.0,1.0,1.0,1.0,1.0,1.0,1.0,,1.0,,1.0,1,,1.0,1.0,1.0,1.0,1.0,,1.0,1.0,1.0,1.0,,,,,1.0,1.0,,,1.0,,1.0,,1.0,1.0,1.0,1.0,1.0,,1.0,,1.0,,1.0,1.0,1.0,1.0,1.0,1.0,1.0,,,,1.0,,,,,1.0,1.0,1.0,1.0,1.0,1.0,1.0,1.0,1.0,,,,,,,,,,,,,,,,,,,1.0,,,,,,,,,1.0,,,,,,,,,,,,,,,,,,,,,,
Cedar Ridge Ministries,Childrens Home,12146 Cedar Ridge Road,,Williamsport,MD,21795,,Washington,301-582-0282 x123,,,,http://cedarridgeministries.org,39.6482628,-77.856098,MH,1,,,,,,,,,1.0,,1.0,1.0,1.0,,1.0,,,1.0,,,,1,,,,,,,,1.0,,1.0,,1.0,1.0,1.0,1.0,,,,,,1.0,,,,,,,1.0,,,,,,,1.0,1.0,1.0,,1.0,1.0,1.0,1,,,1.0,,,1.0,1.0,1.0,1.0,,,1.0,,,,,,1.0,,,,,,1.0,1.0,,,,,1.0,,1.0,,,,,,,,,,,,,1.0,,,,1.0,,1.0,1.0,,,1.0,,1.0,,,,,,,,,,,,,,,,,,,1.0,,,,,,,1.0,,,,,,,,,,,,,,,,,,,,,,,,
Bethlem Hospital,,801 Ostrum Street,,Bethlehem,PA,18015,,Bucks,215-538-4500 x4747,,,,http://www.slhn.org,40.6090639,-75.3930609,MH,1,,,,,,,,,1.0,1.0,1.0,1.0,,,,,1.0,1.0,,,1.0,1,,,,,,1.0,1.0,1.0,1.0,1.0,1.0,1.0,,,,1.0,1.0,,,1.0,1.0,,,,1.0,,,1.0,1.0,1.0,,1.0,,,,,1.0,,1.0,,,1,,,1.0,,1.0,,,,1.0,,,,,,,,1.0,1.0,,,,1.0,,,1.0,1.0,,,,1.0,,,,,,,,,,,,,,,,,,,,,,,,,,,,,,,,,,,,,,,,,,,1.0,,,,,,,,,,,,,,,,,,,,,,,,,,,,,,,,,,
Central Texas VA Healthcare Services,,1901 Veterans Memorial Drive,,Temple,TX,76504,,Bell,254-743-1271,,,,http://CTVHCS.gov,31.076454,-97.347436,MH,1,,,,,,,,,1.0,1.0,1.0,1.0,1.0,1.0,,,1.0,1.0,,,,1,,1.0,1.0,,,,,1.0,,1.0,1.0,,,,,,,,,1.0,1.0,1.0,,,,1.0,1.0,1.0,1.0,,1.0,,,,1.0,,,,1.0,1.0,,1,,,1.0,1.0,1.0,,1.0,,1.0,,1.0,1.0,,1.0,1.0,1.0,1.0,1.0,1.0,,,1.0,1.0,,1.0,1.0,1.0,,,,1.0,1.0,,1.0,,1.0,1.0,1.0,1.0,1.0,1.0,1.0,1.0,1.0,1.0,,,,1.0,,,1.0,,1.0,,1.0,,,1.0,1.0,1.0,1.0,,,,,1.0,1.0,1.0,1.0,,,,,1.0,1.0,1.0,1.0,,1.0,1.0,1.0,1.0,,,,1.0,,,,,,,,,,1.0,,,,,,,,,,
Central Texas VA Healthcare System,Waco VA Medical Center,4800 Memorial Drive,,Waco,TX,76711,,McLennan,254-752-6581,Intake,254-297-3050,,http://www.centraltexas.va.gov,31.5129761,-97.1639125,MH,1,,,,,,,,,1.0,1.0,1.0,1.0,1.0,1.0,1.0,,1.0,1.0,,,1.0,1,,1.0,1.0,,,1.0,1.0,1.0,,1.0,,,,,,,,,,1.0,1.0,1.0,,,1.0,,1.0,1.0,1.0,1.0,1.0,1.0,1.0,1.0,1.0,,1.0,1.0,1.0,1.0,,1,1.0,1.0,1.0,1.0,1.0,,1.0,1.0,1.0,1.0,1.0,1.0,,1.0,1.0,1.0,1.0,1.0,1.0,1.0,,1.0,1.0,,1.0,1.0,1.0,,,,,1.0,,1.0,,1.0,1.0,1.0,1.0,,1.0,1.0,,1.0,1.0,,,,1.0,,1.0,1.0,,1.0,1.0,1.0,1.0,,1.0,,,1.0,,,,1.0,1.0,1.0,1.0,1.0,,,,,1.0,1.0,1.0,1.0,,1.0,1.0,1.0,1.0,,,,,,,,,,,,,,,,,,,,,,,,
Sage Recovery and Wellness Village,,7201 Gilbert Road,,Manor,TX,78653,,Travis,512-306-1394,,,,http://,30.2767472,-97.577331,MH,1,,,1.0,,,,,,1.0,1.0,1.0,1.0,1.0,1.0,1.0,,1.0,,,,,1,,,,,,1.0,,,,1.0,,,,,,,,,,,1.0,,1.0,1.0,,,1.0,1.0,,,,,1.0,1.0,1.0,1.0,1.0,,1.0,,,1,,1.0,1.0,,1.0,,,,,,,,,,,1.0,1.0,1.0,,,,1.0,,,1.0,1.0,1.0,,1.0,,,1.0,,,,,,,,,,,,,1.0,1.0,1.0,1.0,1.0,1.0,1.0,1.0,1.0,1.0,1.0,1.0,1.0,,,,,,,,,,1.0,,,,,,,,,1.0,,,,,,1.0,,,1.0,,,,,,,,,,,,,,,,,,,,,,
Center for Discovery,Dallas,5124 Corinthian Bay Drive,,Plano,TX,75093,4001.0,Collin,866-862-3631,Intake,214-501-5111 x2,,http://centerfordiscovery.com/locations/plano/,33.0376292,-96.8005843,MH,1,,1.0,,,,,,,1.0,1.0,1.0,1.0,1.0,,,,,1.0,,,,1,,,,,,1.0,,,,1.0,1.0,,,,,,,,,,,,,,,1.0,,1.0,,,,,,,1.0,,,,1.0,,,1,,,1.0,,,,1.0,,1.0,1.0,,,,,,,,,,,,,,1.0,,,,,1.0,,,1.0,,,,,,,,,,,,,,,,,,,,1.0,,,1.0,1.0,,,,,,,,,,,,,,1.0,,,,,,1.0,,,,,,,1.0,,,,,,,,,,,,,,,,,,,,,,,,
Center for Discovery,Houston,17515 Swansbury Drive  ,,Cypress,TX,77429,3407.0,Harris,866-824-0109,,,,http://centerfordiscovery.com/locations/houston-outpatient/,29.9754861,-95.694595,MH,1,,1.0,,,,,,,1.0,1.0,1.0,1.0,1.0,,,,,1.0,,,,1,,,,,,1.0,,,1.0,1.0,1.0,1.0,1.0,1.0,1.0,1.0,1.0,1.0,1.0,,,,,,,,,1.0,,,,,,,1.0,,,,1.0,,,1,,,1.0,,,,1.0,,1.0,1.0,,,,,,,,,,,,,,1.0,,,,,1.0,,,1.0,,,,,,,,,,,,,,,,,,,,,,,,,,,,,,,,,,,,,,,,,,,,,,,,,,,,,1.0,,,,,,,,,,,,,,,,,,,,,,
Unity Childrens Home,,2111 River Valley Drive,,Spring,TX,77373,,Harris,281-355-0905,Intake,281-355-0716,,http://www.unitychildrenshome.com,30.0577736,-95.3951413,MH,1,,1.0,,,,,,,1.0,,1.0,1.0,1.0,1.0,,,1.0,1.0,,,,1,,,,,,,,,,,,,,,,1.0,,,,,1.0,,,,,1.0,1.0,,,,1.0,,,,,1.0,,,,,,1,,,,,1.0,,,,,,,,,,,,,1.0,,,1.0,,,1.0,,,,,,1.0,,1.0,,,,,,,,,,,,,,,,,,,,,,,,,,,,,,,,,,,,,,1.0,,,,,,,,,,,,,1.0,,,,,,,,,,,,,,,,,,,,,,,,
Corpus Christi Medical Center,Bayview Behavioral Hospital,6629 Wooldridge Road,,Corpus Christi,TX,78414,,Nueces,361-986-8200 x8204,Intake,361-986-8200,,http://www.ccmedicalcenter.com,27.6799384,-97.3602123,MH,1,1.0,,,,,,,,1.0,1.0,1.0,1.0,1.0,1.0,1.0,,1.0,1.0,,,1.0,1,1.0,1.0,,,,1.0,1.0,1.0,1.0,1.0,1.0,1.0,1.0,1.0,1.0,1.0,1.0,,,1.0,,1.0,,,1.0,1.0,1.0,1.0,1.0,1.0,1.0,1.0,1.0,1.0,1.0,1.0,1.0,,1.0,,1.0,1,,,1.0,,,,,1.0,1.0,,,1.0,,1.0,1.0,,1.0,1.0,,,,1.0,,1.0,1.0,1.0,1.0,1.0,1.0,,,1.0,,,,,,,,,,,,,,,,,,,,,,,,,,1.0,,,,1.0,,,1.0,1.0,1.0,1.0,1.0,1.0,,,,,,1.0,1.0,,,1.0,1.0,1.0,1.0,,,,,,,,,,,,,,,,,,,,,,,,
Markus Mittemayr,,4123 37th Street North,,Saint Petersburg,FL,33714,,Pinellas,727-522-4717,Intakes,727-821-4819 x6762,727-824-5724,http://www.boleycenters.org,27.8094248,-82.6829813,MH,1,,,1.0,,,,,,,,1.0,1.0,1.0,1.0,,,,,,,,1,,,,,,1.0,1.0,1.0,1.0,1.0,1.0,1.0,1.0,,1.0,1.0,1.0,1.0,1.0,1.0,1.0,,1.0,1.0,,,1.0,1.0,,,1.0,1.0,1.0,1.0,1.0,,1.0,,1.0,,1.0,1,,1.0,1.0,,1.0,1.0,,1.0,1.0,1.0,,,1.0,1.0,,1.0,,1.0,1.0,1.0,,1.0,1.0,,1.0,1.0,1.0,1.0,,1.0,,1.0,,1.0,,,1.0,,,,,,,,1.0,,,,1.0,,,1.0,1.0,,1.0,1.0,1.0,,,,,1.0,1.0,,,,,,,,,,,,,1.0,,,,,,,,,1.0,,,,,,,,,,,,,,,,,,,,,,
Boley Morningside Safe Haven,,9220 102nd Avenue North,,Seminole,FL,33777,,Pinellas,727-821-4819,Intake,727-686-7490,,http://www.boleycenters.org,27.8651712,-82.7663672,MH,1,,,1.0,,,,,,1.0,,,,,,,,1.0,,,,,1,,,,,,,,,,,,,,,,,1.0,,,1.0,,,,,,,1.0,1.0,1.0,,,,1.0,1.0,1.0,,1.0,,1.0,1.0,,1,,,1.0,,1.0,,,,,1.0,,,,,,1.0,1.0,1.0,,,,,,,,1.0,1.0,,,1.0,,,,,,,,,,,,,,,1.0,,,,1.0,,,1.0,1.0,,1.0,1.0,,,,,,,,,,,1.0,,,,,,,,,1.0,,,,,,,,,1.0,,,,,,,,,,,,,,,,,,,,,,
David Lawrence Center,Outpatient/Residential and Detox,6075 Bathey Lane,,Naples,FL,34116,,Collier,239-455-8500,Intake,,239-354-1446 x1527,http://davidlawrencecenter.org,26.1758257,-81.7282945,MH,1,,,,,,,,1.0,1.0,1.0,1.0,1.0,1.0,1.0,1.0,,1.0,1.0,,,,1,1.0,1.0,,,,1.0,1.0,1.0,1.0,1.0,1.0,1.0,1.0,1.0,,1.0,1.0,1.0,1.0,1.0,1.0,1.0,1.0,1.0,1.0,1.0,1.0,,1.0,,,1.0,,,1.0,1.0,1.0,,1.0,,1.0,1,,,1.0,,1.0,1.0,1.0,1.0,1.0,1.0,1.0,1.0,,1.0,1.0,1.0,1.0,1.0,,1.0,,,,1.0,1.0,1.0,1.0,1.0,,1.0,,1.0,,,,,1.0,,,,,,,,,,,,,,,,,,,1.0,,,1.0,,,1.0,,,,,,,,,,,,,,1.0,,,,,,,1.0,,,,1.0,,1.0,,1.0,,,,,,,,,,,,,,,,
Family Center for Recovery,,7051 Seacrest Boulevard,,Lake Worth,FL,33462,,Palm Beach,561-296-5288,,,,http://www.fcfrmd.com,26.5709319,-80.0680089,MH,1,,,,,,,,1.0,1.0,1.0,1.0,1.0,1.0,1.0,1.0,,1.0,,,,,1,1.0,1.0,,,,1.0,1.0,,,1.0,1.0,,1.0,,,,,,,,,,,,,,1.0,1.0,1.0,1.0,1.0,1.0,1.0,1.0,1.0,1.0,1.0,,1.0,1.0,1.0,1,,1.0,1.0,1.0,,1.0,1.0,1.0,1.0,1.0,1.0,1.0,,1.0,1.0,1.0,1.0,1.0,,1.0,,1.0,1.0,1.0,1.0,1.0,1.0,1.0,1.0,,,1.0,,1.0,,1.0,,,1.0,1.0,1.0,1.0,1.0,1.0,1.0,1.0,1.0,1.0,1.0,1.0,1.0,1.0,,1.0,,1.0,1.0,1.0,1.0,,,,,,,1.0,1.0,1.0,1.0,1.0,,,,,,1.0,1.0,,,1.0,1.0,1.0,,,1.0,,,,,,,,,,,,,,,,,,,,,,
Guest House Ocala,,3230 NE 55th Avenue,,Silver Springs,FL,34488,,Marion,855-483-7800,Intakes,352-812-2780,800-483-7800 x1,http://www.theguesthouseocala.com,29.2202852,-82.0601221,MH,1,,,1.0,,,,,,1.0,1.0,1.0,1.0,1.0,1.0,1.0,,1.0,,,,,1,1.0,1.0,,,,1.0,,,,1.0,,,,,,,,,,,,,,,,,,,,,,,,,1.0,,,,1.0,,,1,,,1.0,,,,,,,,,,,,1.0,,1.0,,,,,,,,1.0,1.0,1.0,,1.0,,,1.0,,,,,,,,,,,,,,,,,,,,,,,,,,,,,,1.0,,,,,,1.0,1.0,1.0,,,,,,,,,,1.0,1.0,1.0,,,1.0,,,,,,,,,,,,,,,,,,,,,,
Dignity Healing,Crystal Lake Healing,1000 East Hillsboro Boulevard,Suite 103,Deerfield Beach,FL,33441,,Broward,754-227-3733,Intake,844-612-4180,,http://www.crystallakehealing.com,26.3168124,-80.0896339,MH,1,,,,,,,,1.0,1.0,1.0,1.0,1.0,1.0,1.0,1.0,,,,,,1.0,1,1.0,1.0,,,,1.0,,,,1.0,1.0,,,,,,,,,,1.0,,,,,,1.0,1.0,1.0,1.0,1.0,1.0,1.0,1.0,1.0,,1.0,,1.0,,,1,1.0,1.0,1.0,1.0,1.0,1.0,1.0,1.0,1.0,1.0,1.0,1.0,,1.0,1.0,1.0,1.0,1.0,1.0,1.0,,1.0,,,1.0,1.0,1.0,,1.0,,,1.0,,1.0,1.0,1.0,1.0,1.0,1.0,,,,,,1.0,,,,,,,,,1.0,1.0,1.0,1.0,1.0,,,,,,,,1.0,,1.0,1.0,1.0,1.0,,,,,1.0,,,,1.0,1.0,1.0,,,1.0,,,,,,,,,,,,,,,,,,,,,,
Kinder in the Keys Treatment Center,,6 Ocean View Boulevard,,Key Largo,FL,33037,,Monroe,800-545-4046,,,,http://www.kinderinthekeys.com,25.0416111,-80.4924803,MH,1,,,1.0,,,,,,1.0,1.0,1.0,1.0,1.0,,1.0,,,,,,,1,1.0,,,,,1.0,,,,1.0,,,,,,,,,,,,,,,,,,1.0,,,,,,,1.0,,,,1.0,,,1,,,1.0,,,,1.0,1.0,1.0,,,,,,,,,1.0,,,,,,,1.0,1.0,1.0,,1.0,,,,,,,,,,,,,,,,,,,,,,,,,,,,,,,,,,,,,1.0,,,,,,,,,,,,,,,,1.0,,,1.0,,,,,,,,,,,,,,,,,,,,,,
Canopy Cove Eating Disorder Trt Ctr,Refresh Canopy Cove,13305 Mahan Drive,,Tallahassee,FL,32309,,Leon,850-893-8800,Intake,888-245-6555,,http://www.canopycove.com,30.5180759,-84.0520897,MH,1,,,,1.0,,,,,1.0,,1.0,1.0,1.0,,1.0,,1.0,1.0,,,,1,1.0,,,,,1.0,1.0,,1.0,1.0,1.0,,,,,,,,,,,,1.0,,,1.0,,,,,,,,,,,,,,,,1,,,,,,,1.0,,1.0,,,,,,,,1.0,,,,,,,1.0,1.0,1.0,1.0,,1.0,,,1.0,,,,,,,,,,,,,,,,,,,,,,,,,,,1.0,,,,,,,,,,,,,,,,,,,,,,,,1.0,,,,,,,,,,,,,,,,,,,,,,,,
Christ Child House,,15751 Joy Road,,Detroit,MI,48228,,Wayne,313-584-6077,,,,http://www.christchildhouse.org,42.3574252,-83.1996041,MH,1,,1.0,,,,,,,1.0,,1.0,1.0,1.0,1.0,1.0,,1.0,1.0,,,,1,,,,,,,,,,,,1.0,1.0,,1.0,1.0,1.0,,,,1.0,,,,,,,1.0,,,,,,,1.0,1.0,,,1.0,,,1,,,1.0,,,,1.0,1.0,1.0,1.0,,,1.0,,,1.0,,1.0,1.0,,,,1.0,1.0,,,,,,1.0,,1.0,,,,,1.0,1.0,,,,,,,1.0,,,,1.0,,,1.0,,,1.0,1.0,,,,,,1.0,,,,,,,,,,,,,,1.0,,,,,,1.0,1.0,,,,,,,,,,,,,,,,,,,,,,,,
Recovery Ranch,,6107 Pinewood Road,,Nunnelly,TN,37137,,Hickman,931-729-9631,Intake,,800-849-5969,http://www.recoveryranch.com,35.912354,-87.472971,MH,1,,,,,,,,1.0,1.0,1.0,1.0,1.0,1.0,1.0,1.0,,1.0,,,,,1,1.0,1.0,,,,1.0,,,,1.0,,,,,,,,,,,,,,,,,1.0,1.0,1.0,,1.0,1.0,1.0,1.0,1.0,,1.0,,1.0,1.0,1.0,1,,,1.0,1.0,1.0,,1.0,,1.0,,1.0,,,1.0,1.0,1.0,1.0,1.0,,,,1.0,,,1.0,1.0,1.0,,1.0,,,1.0,,,,,,,,,,,,,,,,,,,,,,,,,,,,,,,,,,,,,,,,,,,,,,,,,,,,,1.0,,,,,,,,,,,,,,,,,,,,,,
Village Behavioral Health,DBA The Village,2431 Jones Bend Road,,Louisville,TN,37777,,Blount,865-970-1263,,,,http://www.villagebh.com,35.8748273,-84.0256673,MH,1,,1.0,,,,,,,1.0,1.0,1.0,1.0,1.0,1.0,1.0,,1.0,1.0,,,,1,,,,,,1.0,1.0,,1.0,1.0,1.0,1.0,1.0,1.0,1.0,1.0,1.0,,,,,,,,1.0,1.0,1.0,1.0,,,1.0,,,,1.0,1.0,,,1.0,,,1,,,1.0,,,,1.0,1.0,1.0,,,,,,,1.0,,1.0,,,,1.0,1.0,1.0,,,,,1.0,,,1.0,,,,,,,,,,,,,,,,,,,,,,,,,,,1.0,,,,,,,,,,,,,,,,,1.0,,,,,,,1.0,,,,,,,,,,,,,,,,,,,,,,,,
Memphis VAMC,,1030 Jefferson Avenue,,Memphis,TN,38104,,Shelby,901-523-8990,Intakes,901-523-8990 x7411,901-523-8990 x5309,http://www.va.gov,35.1437049,-90.0258794,MH,1,,,,,,,,,1.0,1.0,1.0,1.0,1.0,1.0,1.0,,1.0,1.0,,,1.0,1,,1.0,1.0,,,,,,,1.0,1.0,,,,,,,,,1.0,1.0,1.0,,,,,1.0,1.0,1.0,,,,1.0,,1.0,,1.0,1.0,1.0,1.0,1.0,1,,1.0,1.0,1.0,1.0,1.0,1.0,1.0,1.0,1.0,1.0,1.0,1.0,1.0,1.0,1.0,1.0,1.0,1.0,1.0,,1.0,1.0,,1.0,1.0,1.0,,,,,1.0,,1.0,,1.0,1.0,1.0,1.0,1.0,1.0,1.0,,,1.0,1.0,1.0,1.0,1.0,1.0,1.0,1.0,,1.0,1.0,1.0,1.0,,1.0,,,1.0,,,,,,1.0,1.0,1.0,,,,,1.0,1.0,,1.0,,,,1.0,1.0,,,,,,,,,,,,,,,,,,,,,,,,
Methodist Behavioral Hospital,,1601 Murphy Drive,,Maumelle,AR,72113,6187.0,Pulaski,501-803-3388,Intake,,866-813-3388,http://www.methodistfamily.org,34.876795,-92.394417,MH,1,1.0,,,,,,,,1.0,1.0,1.0,1.0,1.0,1.0,1.0,,1.0,1.0,,,1.0,1,,,,,,1.0,1.0,,1.0,1.0,1.0,,1.0,1.0,1.0,,,,,1.0,1.0,1.0,,,1.0,,1.0,1.0,,,1.0,,,1.0,1.0,1.0,,,1.0,,,1,,,1.0,,1.0,,1.0,1.0,1.0,,,1.0,,1.0,1.0,,1.0,1.0,,,,1.0,,1.0,,,,,,1.0,,,,,,,,,,,,,,,,,,,,,,,,,,,,,,,,1.0,1.0,1.0,1.0,,1.0,1.0,1.0,1.0,,,,,,,1.0,,,1.0,1.0,1.0,1.0,,,,,,,,,,,,,,,,,,,,,,,,
NE Arkansas Community MH Center,DBA Mid South Health Systems,211 Missouri Street,,Helena,AR,72342,,Phillips,870-338-3363,,,,http://www.mshs.org,34.5222647,-90.5877867,MH,1,,,,,,,1.0,,1.0,1.0,1.0,1.0,1.0,1.0,1.0,,1.0,,,,,1,,1.0,,,,,1.0,1.0,1.0,1.0,1.0,,,,,1.0,,,,,1.0,,,,,,1.0,1.0,1.0,,,1.0,1.0,,1.0,1.0,1.0,,1.0,1.0,,1,,,1.0,1.0,1.0,1.0,1.0,,1.0,1.0,,1.0,,,,1.0,1.0,1.0,,,,,,,1.0,1.0,1.0,,,1.0,1.0,1.0,,,,1.0,1.0,1.0,1.0,1.0,1.0,,1.0,,,,1.0,,1.0,,1.0,1.0,1.0,1.0,1.0,1.0,1.0,1.0,,,,,1.0,,,1.0,1.0,,,,1.0,,,,,1.0,1.0,,1.0,,,,,1.0,,,,,,,,,,,,,,,,,,,,,,,
Foundation for Living,,1451 Lucas Road,,Mansfield,OH,44903,,Richland,419-589-5511 x212,Intakes,419-589-5511 x215,419-589-5511 x203,http://www.foundationsforliving.net,40.7439885,-82.4641059,MH,1,,1.0,,,,,,,1.0,1.0,1.0,1.0,1.0,1.0,1.0,,,1.0,,,,1,,,,,,1.0,1.0,1.0,1.0,1.0,1.0,1.0,1.0,1.0,1.0,1.0,1.0,1.0,1.0,1.0,1.0,,,,1.0,,1.0,,,,,,,,1.0,1.0,,,1.0,,,1,,1.0,1.0,,,,,1.0,1.0,1.0,,,,,,1.0,,1.0,,,,,,1.0,,,,1.0,1.0,,,1.0,,,,,,,,,,,,,,,,,,,,,,,,,,,,,,,,,,,,,,,,,,,,,,,,,,,1.0,,,,,,,,,,,,,,,,,,,,,,,,
Dayton VA Medical Center,Mental Health,4100 West 3rd Street,,Dayton,OH,45428,,Montgomery,937-268-6511 x2167,Intake,937-268-6511 x2188,,https://www.dayton.va.gov/,39.7491418,-84.2534633,MH,1,,,,,,,,,1.0,1.0,1.0,1.0,1.0,1.0,1.0,1.0,1.0,1.0,,,1.0,1,,1.0,1.0,,,1.0,1.0,1.0,,1.0,1.0,,,,,,,,,1.0,,1.0,,,,,1.0,1.0,1.0,1.0,,,1.0,1.0,1.0,,1.0,1.0,1.0,1.0,,1,1.0,1.0,1.0,,1.0,1.0,1.0,1.0,1.0,1.0,,1.0,,1.0,1.0,1.0,1.0,1.0,1.0,1.0,,1.0,1.0,,1.0,1.0,1.0,,,,,1.0,,,,,1.0,,,,,,,,,,,,,,,,,,1.0,1.0,,,1.0,,,1.0,,,,1.0,1.0,1.0,1.0,1.0,,,,,1.0,1.0,,1.0,,1.0,1.0,1.0,1.0,,,,,,,,,,,,,,,,,,,,,,,,
Lindner Center of HOPE,,4075 Old Western Row Road,,Mason,OH,45040,,Warren,513-536-4673,,,,http://lindnercenterofhope.org,39.3310682,-84.2953524,MH,1,1.0,,,,,,,,1.0,1.0,1.0,1.0,1.0,1.0,1.0,1.0,1.0,,,,1.0,1,1.0,1.0,,,,1.0,1.0,1.0,,1.0,,,,,,,,,,,1.0,1.0,,1.0,,,1.0,1.0,,,,,1.0,,1.0,,1.0,,1.0,,1.0,1,,,1.0,,,1.0,1.0,1.0,1.0,,1.0,,,1.0,,,1.0,1.0,,,,1.0,,1.0,1.0,1.0,1.0,,,1.0,,1.0,,,,,,,,,,,,,,,,,,,,,,,,,,,,,1.0,1.0,,,,,1.0,,,,,,,,,,,,,,,,1.0,,,,,,,,,,,,,,,,,,,,,,,,
Hotel California By The Sea,,7172 Pfeiffer Road,,Cincinnati,OH,45242,,Hamilton,888-733-7755,,,,http://www.HotelCaliforniaByTheSea.com,39.2491482,-84.3610285,MH,1,,,1.0,,,,,,1.0,1.0,1.0,1.0,1.0,1.0,,,,,,,,1,,,,,,1.0,,,,1.0,1.0,,,,,,,,,,,,,,,,1.0,1.0,1.0,,,,1.0,,,,,,1.0,,1.0,1,,1.0,1.0,1.0,,,1.0,1.0,1.0,,1.0,1.0,,,1.0,1.0,1.0,1.0,,,,1.0,,,1.0,1.0,1.0,,1.0,,,1.0,,,,,,,,,,,,,1.0,,,,,,,,,,1.0,1.0,,,1.0,,,1.0,,,,1.0,,,,1.0,,,,,,1.0,,,,,,,,,1.0,,,,,,,,,,,,,,,,,,,,,,
Veterans Affairs Medical Center,Substance Use Disorders Program,4101 Woolworth Avenue,,Omaha,NE,68105,,Douglas,402-346-8800 x4063,Intakes,402-346-8800 x4301,402-346-8800 x4160,http://www.va.gov,41.2432389,-95.9746129,MH,1,,,,,,,,,1.0,1.0,1.0,1.0,1.0,1.0,1.0,1.0,1.0,1.0,,,1.0,1,,1.0,1.0,,,1.0,1.0,1.0,1.0,1.0,1.0,,,1.0,,,,,,1.0,1.0,1.0,,,,,1.0,1.0,1.0,1.0,1.0,1.0,1.0,1.0,1.0,,1.0,,1.0,1.0,,1,1.0,1.0,1.0,1.0,1.0,1.0,1.0,,1.0,1.0,,1.0,1.0,1.0,1.0,1.0,1.0,1.0,1.0,1.0,,1.0,1.0,,1.0,1.0,1.0,1.0,,,,1.0,,1.0,,1.0,1.0,1.0,1.0,1.0,1.0,1.0,1.0,1.0,1.0,1.0,1.0,1.0,1.0,1.0,1.0,1.0,1.0,1.0,1.0,1.0,1.0,1.0,1.0,,,1.0,1.0,,,1.0,1.0,1.0,1.0,1.0,,,1.0,,1.0,1.0,,1.0,,1.0,1.0,1.0,1.0,,1.0,,,,,,,,,,,,,,,,,,,,,,
Braided Circle,,1500 Colburn Road,,Billings,MT,59102,,Yellowstone,406-869-0787,,,,http://www.newdayranch.com,45.7752,-108.58,MH,1,,,1.0,,,,,,1.0,1.0,1.0,1.0,1.0,1.0,,,1.0,1.0,,,,1,1.0,1.0,,,,1.0,1.0,,,1.0,1.0,,,,1.0,1.0,,,,,,,1.0,,,,1.0,1.0,1.0,,1.0,1.0,1.0,1.0,1.0,,,,1.0,,,1,,,1.0,,1.0,1.0,1.0,,,1.0,,,,1.0,,,1.0,,,,,1.0,,,1.0,1.0,1.0,1.0,,1.0,,1.0,,1.0,,,,,,,,,,,,,,,,,,,1.0,,,,,1.0,,,,,1.0,,,1.0,,,,,1.0,,,,,1.0,,,,,,,1.0,,,,,,,,,,,,,,,,,,,,,,,,
Safe Haven Home,Women and Children,2115 Canyon Drive,,Billings,MT,59101,,Yellowstone,406-869-0808,,,,http://www.newdayranch.com,45.6311,-108.3519,MH,1,,,1.0,,,,,,,,,,,,,,,1.0,,,,1,,,,,,1.0,1.0,,,1.0,1.0,,,,1.0,1.0,,,,,,,1.0,,,,1.0,1.0,1.0,,1.0,1.0,1.0,1.0,1.0,,,,1.0,,,1,,,1.0,,1.0,1.0,1.0,,,1.0,,,,1.0,,,1.0,,,,,1.0,,,1.0,1.0,1.0,1.0,,1.0,,1.0,,1.0,,,,,,,,,,,,,,,,,,,1.0,,,,,,,,,,1.0,,,1.0,,,,,1.0,,,,,1.0,,,,,,,1.0,,,,,,,,,,,,,,,,,,,,,,,,
Columbus Behavioral Center for,Children and Adolescents,2223 Poshard Drive,,Columbus,IN,47203,,Bartholomew,812-376-1711,Intake,,812-314-3721,http://www.columbusbehavioral.com/,39.2479359,-85.8998629,MH,1,,1.0,,,,,,,1.0,1.0,1.0,1.0,1.0,,1.0,,1.0,1.0,,,,1,,,,,,1.0,1.0,,1.0,1.0,1.0,1.0,1.0,,1.0,,,,,,,,,,1.0,,,1.0,,,1.0,,,,1.0,,,,1.0,,,1,,,1.0,,,,1.0,1.0,1.0,,,1.0,,,,,,1.0,,,,,,1.0,,,,,1.0,,,,,,,,,,,,,,,,,,,,,,,,,,,,,,,,,,,,,,,,,,,,,,,,,,,,,,1.0,,,,,,,,,,,,,,,,,,,,,,,,
Midwest Ctr for Youth and Families,,1012 West Indiana Street,,Kouts,IN,46347,,Porter,219-766-2999,Intakes,219-766-2999 x490,888-629-3471 x490,http://www.midwest-center.com/,41.3191636,-87.0392375,MH,1,,1.0,,,,,,,1.0,1.0,1.0,1.0,1.0,,1.0,,,1.0,,,,1,,,,,,1.0,1.0,,1.0,1.0,1.0,,1.0,1.0,1.0,,1.0,,,,1.0,,,,,,1.0,1.0,,,1.0,,,,1.0,1.0,,,1.0,,,1,,,1.0,,,,,1.0,1.0,,,,,,,,1.0,1.0,,,,,,1.0,1.0,,,,1.0,,,1.0,,,,,,,,,,,,,,,,,,,,,,,,,,,,,,,,,,,,,,,,,,,,,,,,,,,1.0,,,,,,,,,,,,,,,,,,,,,,,,
Midwest Ctr for Youth and Families,South Shore Academy,2301 Cumberland Drive,,Valparaiso,IN,46383,,Porter,888-629-3471 x101,Intakes,888-629-3471,219-766-2999,http://www.midwest-center.com,41.4897842,-87.0519714,MH,1,,1.0,,,,,,,1.0,1.0,1.0,1.0,1.0,,1.0,,,1.0,,,,1,,,,,,1.0,1.0,,1.0,1.0,1.0,,1.0,1.0,1.0,,1.0,,,,1.0,,,,,,1.0,1.0,,,1.0,,,,1.0,1.0,,,1.0,,,1,,,1.0,,,,,1.0,1.0,,,,,,,,1.0,1.0,,,,,,1.0,1.0,,,,1.0,,,,,,,,,,,,,,,,,,,,,,,,,,,,,,,,,,,,,,,,,,,,,,,,,,,,,,1.0,,,,,,,,,,,,,,,,,,,,,,,,
Family Residence and Essential Ent Inc,Terrys Place PROS,191 Bethpage Sweet Hollow Road,,Old Bethpage,NY,11804,,Nassau,516-870-1600 x1654,Intake,516-870-1654,,http://www.familyres.org/,40.7598607,-73.4422374,MH,1,,,,,,,,1.0,1.0,,1.0,1.0,,1.0,1.0,,,,,,,1,,1.0,,,,1.0,1.0,1.0,,,,1.0,,,,,1.0,,,,1.0,,1.0,1.0,,,1.0,1.0,,,,1.0,1.0,,1.0,,1.0,,1.0,1.0,1.0,1,,,,,1.0,1.0,,1.0,1.0,1.0,,,,1.0,1.0,1.0,1.0,1.0,1.0,1.0,,1.0,1.0,,1.0,1.0,1.0,,,1.0,,1.0,,,,,,,,,,,,,,,,,,,,,,,,,,,,,,,,,,,,,,,,,,,,1.0,,,,,,,,,1.0,,,,,,,,,,,,,,,,,,,,,,
VA Hudson Valley Healthcare System,FDR,2094 Albany Post Road,Route 9-A,Montrose,NY,10548,,Westchester,914-737-4400,Intake,914-737-4400 x2801,,http://www.hudsonvalley.va.gov,41.244296,-73.9259944,MH,1,,,,,,,,,1.0,1.0,1.0,1.0,1.0,1.0,1.0,,1.0,1.0,,,1.0,1,,1.0,1.0,,,,1.0,,,1.0,1.0,,,,,,,,,1.0,1.0,1.0,,1.0,1.0,,1.0,1.0,1.0,,1.0,1.0,1.0,1.0,1.0,,1.0,,1.0,1.0,1.0,1,,,1.0,1.0,1.0,1.0,1.0,1.0,1.0,1.0,,1.0,,1.0,1.0,1.0,1.0,1.0,1.0,1.0,,1.0,1.0,,1.0,1.0,1.0,,,,,1.0,,1.0,1.0,1.0,1.0,1.0,1.0,1.0,1.0,1.0,1.0,1.0,1.0,1.0,1.0,1.0,1.0,1.0,1.0,1.0,1.0,1.0,1.0,1.0,1.0,,,,,1.0,,,,1.0,,1.0,1.0,1.0,1.0,,1.0,,,1.0,,1.0,,1.0,1.0,1.0,1.0,,,,,,,,,,,,,,,,,,,,,,,,
Villa of Hope,Tuckahoe Road Community Residence,6313 Tuckahoe Road,,Williamson,NY,14589,,Wayne,585-865-1550,,,,http://villaofhope.org,43.22829,-77.203071,MH,1,,1.0,,,,,,,,,,,,,1.0,,1.0,1.0,,,,1,,,,,,,1.0,,,,,1.0,,,,,1.0,,,,,,,,1.0,,1.0,1.0,,,,1.0,,1.0,1.0,1.0,,,1.0,,,1,,,1.0,,,,1.0,,1.0,1.0,,,,,,,1.0,1.0,,,,,,1.0,,,,,,1.0,,,,,,,,,,,,,,,,,,,,,,,,,,,,,,,,,,,,,,1.0,1.0,1.0,,,,,,1.0,1.0,,,,,,1.0,,,,,,,,,,,,,,,,,,,,,,,,
Villa of Hope,RTF,3300 Dewey Avenue,,Rochester,NY,14616,,Monroe,585-865-1550,Intake,,585-581-4673,http://www.villaofhope.org,43.2296175,-77.6451334,MH,1,,1.0,,,,,,,1.0,1.0,1.0,1.0,1.0,1.0,1.0,,1.0,1.0,,,,1,,1.0,,,,,1.0,,,,,1.0,,,1.0,,1.0,,,,,,,,1.0,,1.0,1.0,,,,1.0,,1.0,1.0,1.0,,,1.0,,,1,,,1.0,,,,1.0,1.0,1.0,,,,,,,,1.0,1.0,,,,,,1.0,,,,,,1.0,,1.0,,,,,,,,,,,,,,,,,,,,,,,,,,,,,,,,,,,,1.0,1.0,1.0,,,,,,1.0,1.0,,,,,,1.0,,,,,,,,,,,,,,,,,,,,,,,,
Burlington United Methodist,Fam Servs/Beckley Center,4700 Robert C Byrd Drive,,Beckley,WV,25801,8120.0,Raleigh,304-252-8508,Intake,,304-252-8500,http://www.bumfs.org,37.824685,-81.19333,MH,1,,1.0,,,,,,,1.0,1.0,1.0,1.0,,1.0,1.0,,,1.0,,,,1,,,,,,,1.0,,,,,,1.0,,,,,,,,1.0,,,,,,1.0,1.0,,,1.0,,,,1.0,1.0,,,1.0,,,1,,,1.0,,,,1.0,1.0,,,,,,,,1.0,1.0,1.0,1.0,,1.0,1.0,,1.0,,,,,,1.0,,1.0,,,,,,,,,,,,,,,,,,,,,,,,,,,,,,,,,,,,,,,,,,,,1.0,,,,,,,1.0,,,,,,,,,,,,,,,,,,,,,,,,
Westbrook Health Services,New Day Crisis Stabilization Unit,2121 Rear 7th Street,,Parkersburg,WV,26101,,Wood,304-485-1721 x158,Intake,,304-485-1721 x164,http://www.westbrookhealth.org,39.2786,-81.5101,MH,1,,,,,,,,,,,1.0,1.0,1.0,1.0,,,1.0,,,,,1,,,,,,1.0,1.0,1.0,1.0,1.0,1.0,1.0,,1.0,,1.0,1.0,,,1.0,1.0,,,1.0,1.0,,1.0,1.0,1.0,1.0,1.0,,1.0,,1.0,,1.0,,1.0,,1.0,1,,,1.0,,1.0,,,,,,,,,,1.0,,1.0,1.0,,,,,,,1.0,1.0,1.0,,,1.0,,1.0,1.0,,,1.0,1.0,,1.0,,1.0,,1.0,,1.0,,,1.0,1.0,,1.0,1.0,,1.0,1.0,1.0,1.0,,,,,,,1.0,,1.0,1.0,,,,,,,,,1.0,,,,,,,1.0,,,,,,,,,,,,,,,,,,,,,,,,
Logan Mingo Area Mental Health Inc,,3 Mile Branch Road,,Logan,WV,25601,,Logan,304-792-7130,,,,http://www.lmamh.org,37.8270912,-81.9448089,MH,1,,,,,,,1.0,,1.0,1.0,1.0,1.0,,1.0,,,1.0,,,,1.0,1,,1.0,,,,1.0,1.0,1.0,1.0,1.0,1.0,1.0,1.0,1.0,1.0,1.0,1.0,1.0,1.0,1.0,1.0,1.0,1.0,,1.0,,1.0,1.0,1.0,1.0,1.0,1.0,1.0,1.0,1.0,1.0,1.0,,1.0,,1.0,1,1.0,1.0,1.0,1.0,1.0,1.0,1.0,1.0,1.0,,1.0,1.0,,1.0,1.0,,1.0,1.0,1.0,,,1.0,,1.0,1.0,1.0,1.0,1.0,,1.0,,1.0,,1.0,,1.0,1.0,1.0,,,,,1.0,1.0,1.0,,,,1.0,,,,,,,1.0,,,,,,1.0,,1.0,1.0,,1.0,1.0,1.0,1.0,,,,,,1.0,,,,1.0,1.0,1.0,,,1.0,,1.0,,,1.0,,1.0,,,,,1.0,,,,,,,1.0,,,
Crittenton Services,Residential Services,2606 National Road,,Wheeling,WV,26003,,Ohio,304-242-7060,Intake,304-242-7060 x155,,http://www.crittentonwv.org,40.0477605,-80.6436494,MH,1,,1.0,,,,,,,1.0,1.0,1.0,1.0,1.0,,1.0,,1.0,1.0,,,,1,,,,,,,1.0,,,,,,1.0,,,,,,,,,,,,,,1.0,1.0,,,,,,1.0,1.0,1.0,,,,,,1,,1.0,1.0,,,,1.0,1.0,1.0,,,,,,,,1.0,1.0,,,,1.0,,1.0,,,,,,1.0,,1.0,,,,,,,,,,,,,1.0,1.0,,,,,1.0,,,,1.0,1.0,1.0,,,,,,1.0,,,1.0,,,,,,,,,,1.0,,,,,,,1.0,,,,,,,,,,,,,,,,,,,,,,,,
Family Care Ministries Freedom Home,,2860 Pyramus Road,,Chester,WV,26034,,Hancock,304-459-3728,Intake,330-368-0725,,http://www.seeinglivestransformed.com,40.6012613,-80.5324069,MH,1,,,1.0,,,,,,1.0,1.0,1.0,1.0,1.0,1.0,1.0,,,1.0,,,,1,,1.0,,,,1.0,,,,,,,,,,,,,,,1.0,1.0,,1.0,1.0,,1.0,1.0,,,,1.0,1.0,,1.0,1.0,1.0,,1.0,,1.0,1,1.0,1.0,1.0,1.0,1.0,1.0,1.0,1.0,1.0,1.0,1.0,1.0,,,,1.0,1.0,1.0,1.0,1.0,,1.0,1.0,1.0,1.0,1.0,1.0,,,1.0,,1.0,,,,,,,,,,,,,,,,,,,,,,,,,,1.0,,,,,1.0,,,1.0,,,,,1.0,,,,,,,,,,,,1.0,,,,,,,,,,,,,,,,,,,,,,,,
Alliance Health Center,The Crossings Residential Center,5000 Highway 39 North,,Meridian,MS,39301,,Lauderdale,601-483-6211,Intake,877-853-3094,,http://www.alliancehealthcenter.com,32.409625,-88.677699,MH,1,,,,,,,,,1.0,1.0,1.0,1.0,1.0,1.0,1.0,1.0,1.0,,,,1.0,1,1.0,1.0,,,,1.0,1.0,1.0,1.0,1.0,1.0,1.0,1.0,1.0,1.0,1.0,1.0,,,1.0,1.0,1.0,,,1.0,,1.0,1.0,1.0,1.0,1.0,1.0,1.0,1.0,1.0,1.0,1.0,1.0,1.0,1.0,1.0,1,,,1.0,1.0,,1.0,1.0,,1.0,,1.0,1.0,,1.0,1.0,1.0,1.0,1.0,,,,1.0,,1.0,1.0,1.0,1.0,1.0,1.0,,,1.0,,1.0,,1.0,1.0,1.0,,,1.0,,,1.0,1.0,1.0,1.0,1.0,1.0,1.0,1.0,1.0,,1.0,1.0,1.0,1.0,,,,,1.0,,,,1.0,1.0,,,,,,1.0,,,1.0,,,,,,,,,1.0,,,,,,,,,,,,,,,,,,,,,,
Canopy Childrens Solutions,CARES Ctr PRTF and School,402 Wesley Avenue,,Jackson,MS,39202,,Hinds,601-352-7784,Intake,601-709-1364,,http://www.mchscares.org,32.3225587,-90.1842503,MH,1,,1.0,,,,,,,1.0,1.0,1.0,1.0,1.0,,1.0,,,1.0,,,,1,,,,,,,1.0,,,,,,,,,,,,,,1.0,,,,1.0,,1.0,1.0,,,,1.0,,1.0,1.0,1.0,1.0,,1.0,1.0,1.0,1,,,1.0,,1.0,1.0,1.0,1.0,1.0,,,,,,,,,1.0,,,,,,1.0,1.0,,,,,1.0,,1.0,,,,,,,,,,,,,,,,,,,,,,,,,,,,,,1.0,,,,1.0,,1.0,1.0,1.0,,,,,,1.0,1.0,,,,,1.0,1.0,,,,,,,,,,,,,,,,,,,,,,,,
Recovery House,,770 Golding Road,,Columbus,MS,39702,,Lowndes,662-329-4333,,,,http://www.recoveryhouse.com,33.4187517,-88.3224428,MH,1,,,1.0,,,,,,1.0,1.0,1.0,1.0,1.0,1.0,1.0,,1.0,,,,,1,,1.0,,,,1.0,,,,,,1.0,,,,,,,,,1.0,,,,,,1.0,,,,,,,,1.0,,1.0,,1.0,,,1,,,1.0,,1.0,1.0,,,1.0,1.0,,1.0,,1.0,,1.0,1.0,1.0,1.0,1.0,,1.0,1.0,,1.0,1.0,1.0,,,1.0,,1.0,,1.0,,,1.0,,,,,,,,,,,,,,,,,,,,,,,,,,1.0,,,1.0,,1.0,,1.0,,,,,,1.0,,,,,,,,,1.0,,,,,,,,,,,,,,,,,,,,,,
Pines and Cady Hill,Recovery Center,1011 Main Street,,Columbus,MS,39701,,Lowndes,662-327-7916,,,,http://www.pachrecovery.org/,33.4964375,-88.4215236,MH,1,,,1.0,,,,,,1.0,1.0,1.0,1.0,1.0,1.0,1.0,,1.0,,,,,1,,1.0,,,,1.0,,,,,,1.0,,,,,,,,,1.0,,,,,,1.0,,,,,,,,1.0,,1.0,,1.0,,,1,,,1.0,,1.0,1.0,,,1.0,1.0,,1.0,,1.0,,1.0,1.0,1.0,1.0,1.0,,1.0,1.0,,1.0,1.0,1.0,,,1.0,,1.0,,1.0,,,1.0,,,,,,,,,,,,,,,,,,,,,,,,,,1.0,,,1.0,,1.0,,1.0,,,,,,1.0,,,,,,,,,1.0,,,,,,,,,,,,,,,,,,,,,,
Angelus House,,158 Flanders Road,,Bethlehem,CT,6751,,Litchfield,203-266-8080,Intake,203-266-8002,,http://Wellspring.org,41.6199611,-73.212898,MH,1,,,1.0,,,,,,1.0,1.0,1.0,1.0,1.0,1.0,1.0,,1.0,1.0,,,,1,,,,,,1.0,,,,,,1.0,,,,1.0,,1.0,1.0,,1.0,,,,,,1.0,1.0,1.0,,1.0,,1.0,1.0,1.0,,1.0,,1.0,1.0,,1,,,,1.0,1.0,1.0,1.0,1.0,1.0,1.0,1.0,,,1.0,1.0,1.0,1.0,1.0,,,,1.0,,,1.0,1.0,,1.0,,1.0,1.0,1.0,,1.0,,1.0,1.0,,1.0,,,,,,1.0,1.0,1.0,1.0,1.0,,1.0,1.0,1.0,1.0,1.0,1.0,1.0,,,,,1.0,,,,1.0,,,,,,,,,,1.0,,,,,,,1.0,,,,,,,,,,,,,,,,,,,,,,,,
VA Connecticut Healthcare System,Chief MHSL,950 Campbell Avenue,"Building 1, Floor 9, Room 9-115 (116A)",West Haven,CT,6516,,New Haven,203-932-5711 x2463,Intake,203-516-8013,,http://www.CONNECTICUT.VA.GOV,41.2844004,-72.9576103,MH,1,,,,,,,,,1.0,1.0,1.0,1.0,1.0,1.0,1.0,1.0,1.0,1.0,,,1.0,1,1.0,1.0,1.0,,,1.0,,,,1.0,1.0,,,,,,,,,1.0,1.0,1.0,,,1.0,,1.0,1.0,1.0,1.0,1.0,1.0,1.0,1.0,1.0,,1.0,1.0,1.0,1.0,,1,1.0,1.0,1.0,1.0,1.0,1.0,1.0,1.0,1.0,1.0,1.0,1.0,1.0,1.0,1.0,1.0,1.0,1.0,1.0,1.0,,1.0,1.0,,1.0,1.0,1.0,,,,,1.0,,1.0,1.0,1.0,1.0,1.0,1.0,1.0,1.0,1.0,1.0,1.0,1.0,1.0,1.0,,1.0,1.0,1.0,1.0,,1.0,1.0,1.0,1.0,1.0,1.0,1.0,1.0,1.0,,,,1.0,1.0,1.0,1.0,1.0,,,,,1.0,1.0,1.0,1.0,,1.0,1.0,1.0,1.0,,,,,,,,,,,,,,,,,,,,,,,,
Institute for Living,Hartford Hospital,200 Retreat Avenue,,Hartford,CT,6106,,Hartford,860-545-7001,Intakes,860-545-7200,800-673-2411,http://www.Harthosp.org/InstituteofLiving,41.7519925,-72.6810735,MH,1,,,,,,,,,1.0,1.0,1.0,1.0,1.0,1.0,1.0,1.0,1.0,1.0,,,1.0,1,1.0,1.0,,,,1.0,1.0,1.0,1.0,1.0,1.0,1.0,1.0,1.0,1.0,1.0,1.0,1.0,1.0,1.0,1.0,1.0,,,1.0,1.0,1.0,1.0,1.0,1.0,1.0,1.0,1.0,,1.0,1.0,1.0,1.0,1.0,1.0,1.0,1,,,1.0,1.0,1.0,,,1.0,1.0,,1.0,1.0,,1.0,1.0,1.0,1.0,1.0,1.0,,,1.0,1.0,1.0,1.0,1.0,1.0,1.0,,1.0,,1.0,,1.0,,1.0,1.0,1.0,1.0,,,,1.0,,1.0,,,,1.0,,,1.0,1.0,,1.0,1.0,,,,1.0,1.0,1.0,,1.0,,,1.0,,,,,,1.0,,,1.0,1.0,,,,,1.0,1.0,,,,1.0,,,,,,,,,,,,,,1.0,,,,,,
Center for Discovery,Fairfield,4536 Congress Street,,Fairfield,CT,6824,,Fairfield,202-902-9643,,,,http://centerfordiscovery.com/locations/fairfield/,41.1951276,-73.3025878,MH,1,,,1.0,,,,,,1.0,1.0,1.0,1.0,1.0,,,,,,,,,1,,,,,,1.0,,,1.0,1.0,1.0,1.0,1.0,1.0,1.0,1.0,1.0,1.0,1.0,,,,,,,,,1.0,,,,,,,1.0,,,,1.0,,,1,,,1.0,,,,1.0,,1.0,1.0,,,,,,,,,,,,,,,1.0,1.0,,,1.0,,,1.0,,,,,,,,,,,,,,,,,,,,,,,,,,,,,,,,,,,,,,,,,,,,,,,,,,,,,1.0,,,,,,,,,,,,,,,,,,,,,,
Laureate Psychiatric Clinic and Hosp,,6655 South Yale Avenue,,Tulsa,OK,74136,3326.0,Tulsa,918-481-4000,,,,http://www.saintfrancis.com/laureate-psychiatric-clinic,36.0663209,-95.9172193,MH,1,1.0,,,,,,,,1.0,1.0,1.0,1.0,1.0,1.0,1.0,1.0,,1.0,,,1.0,1,1.0,1.0,,,,1.0,1.0,1.0,,1.0,1.0,,,,,,,,,,1.0,1.0,,,,,1.0,,,,,,1.0,,,,1.0,1.0,,,,1,,,,,,1.0,1.0,,1.0,,,,,1.0,1.0,,1.0,1.0,,,,1.0,,1.0,1.0,1.0,1.0,,,1.0,,1.0,,1.0,,1.0,1.0,1.0,1.0,1.0,1.0,1.0,1.0,1.0,1.0,1.0,1.0,1.0,1.0,1.0,1.0,1.0,,1.0,1.0,1.0,1.0,,,,,1.0,,,,,,,,,,,,,,1.0,,,,,,,1.0,,,,,,,,,,,,,,,,,,,,,,,,
Calm Center,,6126 East 32nd Place,,Tulsa,OK,74135,,Tulsa,918-394-2256,,,,http://www.crsok.org,36.115902,-95.90668,MH,1,,1.0,,,,,,,1.0,1.0,1.0,1.0,,1.0,1.0,,,1.0,,,,1,,,,,,1.0,1.0,,1.0,1.0,,1.0,1.0,,,,,1.0,1.0,,1.0,,,1.0,1.0,1.0,1.0,1.0,,,,1.0,,1.0,1.0,1.0,,,1.0,,,1,,,1.0,,,,1.0,1.0,1.0,,,,,,,1.0,,1.0,,,,,,1.0,,,,1.0,,1.0,,1.0,,,,,,,,,,,,,,,,,,,,,,,,,,,1.0,,,1.0,,,,,,,,,,,,,,,1.0,,,,,,1.0,,,,1.0,,,,,,,,,,,,,,,1.0,,,,,
White Horse Ranch,,40803 South County Road 213,,Mooreland,OK,73852,,Woodward,580-994-5649,Intake,580-851-0114,,http://www.whitehorseranch.org,36.4392031,-99.2048249,MH,1,,,,,,,,1.0,1.0,1.0,1.0,1.0,,1.0,1.0,,1.0,1.0,,,,1,1.0,1.0,,,,1.0,,,,1.0,,,,,,,,,,,1.0,,1.0,1.0,,,1.0,1.0,,,1.0,1.0,,1.0,1.0,1.0,,,1.0,1.0,,1,,,1.0,,,1.0,,1.0,1.0,,,,,1.0,1.0,1.0,1.0,1.0,,,,1.0,,1.0,,,,,1.0,,,1.0,,,,,,,,,,,,,,,,,,,,,,,,,,1.0,1.0,,,,,,1.0,1.0,1.0,1.0,1.0,1.0,,,,,,1.0,,,,1.0,1.0,1.0,1.0,,,,,,,,,,,,,,,,,,,,,,,,
Dakota Boys and Girls Ranch,,6301 19th Avenue NW,,Minot,ND,58702,,Ward,701-852-3628,,,,http://www.dakotaranch.org,48.254869,-101.38096,MH,1,,1.0,,,,,,,1.0,1.0,1.0,1.0,1.0,1.0,1.0,,,1.0,,,,1,,,,,,1.0,1.0,,1.0,1.0,,1.0,1.0,1.0,1.0,1.0,1.0,,1.0,,1.0,,,,,,1.0,1.0,,,,1.0,,,1.0,1.0,,,1.0,,,1,,1.0,1.0,1.0,,1.0,1.0,1.0,1.0,,,1.0,,,,1.0,1.0,1.0,,,,1.0,,1.0,,,,1.0,,1.0,,1.0,,,,,,,,,,,,,,,,,,,,,,,,,,1.0,1.0,,,,,,,,,1.0,1.0,1.0,,,,,,,,,,,,1.0,1.0,,,,,,,,,,,,,,,,,,,,,,,,
Detox Center of Colorado,,288 Clayton Street,Suite 202,Denver,CO,80206,,Denver,303-952-5035,,,,http://www.detoxcentercolorado.com/,39.7207208,-104.9555236,MH,1,,,1.0,,,,,,1.0,,1.0,1.0,1.0,1.0,1.0,,,,,,,1,,,,,,1.0,,,,1.0,,,,,,,,,,,,,,,,,1.0,1.0,1.0,1.0,1.0,,1.0,1.0,1.0,,1.0,1.0,1.0,1.0,,1,1.0,,1.0,,,,,,1.0,1.0,,,,,,,1.0,1.0,,,,,,,1.0,1.0,1.0,,1.0,,,1.0,,,,,,,,,,,,,,,,,,,,,,,,,,,,,,1.0,,,,1.0,1.0,,,,,,,,,,,,,,,,,,1.0,,,,,,,,,,,,,,,,,,,,,,
Denver Childrens Home,,1501 Albion Street,,Denver,CO,80220,,Denver,303-399-4890,Intake,303-399-4890 x238,,http://www.denverchildrenshome.org,39.7406494,-104.939407,MH,1,,1.0,,,,,,,1.0,1.0,1.0,1.0,1.0,,1.0,,1.0,1.0,,,,1,1.0,1.0,,,,1.0,1.0,,1.0,,,1.0,1.0,,1.0,1.0,1.0,1.0,,,,,,,1.0,1.0,,1.0,,,1.0,1.0,,,1.0,1.0,,,1.0,1.0,,1,1.0,1.0,1.0,,,1.0,1.0,1.0,1.0,,,,,,,1.0,1.0,1.0,1.0,,,,1.0,1.0,1.0,,,1.0,,1.0,,,,,,,,,,,,,,,,,,,,,,,,,,1.0,,,,,,,,,,,,,,,,,,,,1.0,,,,,,,1.0,,,,,,,,,,,,,,,,,,,,,,,,
Milbridge Residence of,Sunrise Opportunities,4 Harbor Lane,,Milbridge,ME,4658,,Washington,207-255-8596,Intake,207-255-6789,,http://sun-rise.tv,44.5357505,-67.880697,MH,1,,,1.0,,,,,,1.0,,,1.0,1.0,1.0,1.0,,1.0,,,,,1,,,,,,1.0,1.0,1.0,1.0,1.0,,1.0,1.0,,,1.0,1.0,1.0,1.0,1.0,1.0,,,,,,1.0,1.0,,,,,1.0,,1.0,,1.0,1.0,1.0,1.0,,1,,,,,1.0,,1.0,,1.0,,1.0,1.0,,1.0,1.0,1.0,,,1.0,,,1.0,,,1.0,1.0,1.0,1.0,,1.0,,1.0,,1.0,,,1.0,,,,,1.0,,,,,,,1.0,,,1.0,,,1.0,1.0,,,,,,,1.0,,,,,,,,,,,,,1.0,,,,,,,,,1.0,,,,,,,,,,,,,,,,,,,,,,
Shalom House Inc,Park Street,130 Park Street,,Portland,ME,4102,,Cumberland,207-874-1088,Intake,207-874-1080,,http://www.shalomhouseinc.org,43.6598,-70.3075,MH,1,,,1.0,,,,,,,,1.0,,,,1.0,,1.0,,,,,1,,,,,,1.0,1.0,,,,,1.0,,,,1.0,1.0,1.0,1.0,,,,,,,,1.0,1.0,1.0,,,1.0,1.0,,1.0,,1.0,,1.0,,,1,,,,1.0,,,1.0,1.0,,1.0,1.0,,1.0,,1.0,1.0,1.0,1.0,,,,,,,1.0,1.0,1.0,,,1.0,,1.0,,1.0,,1.0,1.0,1.0,1.0,1.0,1.0,1.0,1.0,1.0,,,1.0,1.0,1.0,1.0,1.0,1.0,1.0,1.0,1.0,1.0,1.0,,,,,,,,,1.0,1.0,,,,,,,,,1.0,,,,,,,,,1.0,,,,,,,,,,,,,,,,,,,,,,
Veritas Collaborative,Child and Adolescent Hospital,4024 Stirrup Creek Drive,,Durham,NC,27703,9464.0,Durham,919-908-9730,Intake,855-875-5812,,http://www.veritascollaborative.com,35.9182248,-78.8409187,MH,1,,,,,,,,1.0,1.0,1.0,1.0,1.0,1.0,,1.0,,1.0,1.0,,,1.0,1,1.0,,,,,1.0,,,,1.0,1.0,,,,,,,,,,,,,,1.0,1.0,,,,,,,,,,,,,,,,1,,,1.0,,,,1.0,1.0,1.0,,,,,1.0,,,1.0,1.0,,,,1.0,,1.0,,,,,1.0,,,,,,,,,,,,,,,,1.0,,,,,,1.0,1.0,1.0,,1.0,1.0,,,,,,1.0,,,,,,,,1.0,,,,,,1.0,1.0,,,1.0,1.0,1.0,1.0,,,,,,,,,,,,,,,,,,,,,,,,
M and S Supervised Living LLC,,7311 Friendship Church Road,Suite A ,Browns Summit,NC,27214,,Guilford,336-740-2475,Intake,,336-358-7561,http://,36.2002358,-79.6428201,MH,1,,,1.0,,,,,,,,,,,,,,,,,,,1,,,,,,1.0,1.0,1.0,,1.0,,1.0,,,1.0,1.0,1.0,,,,,,,,,,1.0,,,,,,1.0,,,,1.0,,,1.0,,1,,,,,,,1.0,,,1.0,,,,,,,,1.0,,1.0,,,,,1.0,1.0,1.0,,1.0,,,,,,,,,,,,,,,,,,,,,,,,,,,,,,,,,,,,,,,,,,,,,,,,,,,,,,1.0,,,,,,,,,,,,,,,,,,,,,,,,
Family Advantage LLC,,289 Wade Road,,Scotland Neck,NC,27874,,Halifax,252-826-0429,Intake,,252-326-0090,http://www.familyadvantage.net,36.1827271,-77.5569489,MH,1,,1.0,,,,,,,1.0,1.0,1.0,1.0,1.0,1.0,1.0,,,1.0,,,,1,,,,,,,1.0,,1.0,,,1.0,1.0,1.0,,,1.0,,,,1.0,,,,,,1.0,1.0,,,,1.0,,1.0,1.0,1.0,,,1.0,1.0,,1,,,1.0,,1.0,1.0,1.0,1.0,1.0,1.0,,1.0,,,,1.0,1.0,1.0,,,1.0,1.0,,1.0,,,,,1.0,,,1.0,,,,,,,,,,,,,,,,,,,,,,,,,,,,,,,,,,,,,,,,,,,,,,,,,,,1.0,,,,,,,,,,,,,,,,,,,,,,,,
Salisbury VA Medical Center,Substance Abuse Residential Rehab,1601 Brenner Avenue,"Unit 4-4, Building 4",Salisbury,NC,28144,,Rowan,704-638-9000 x15501,Intakes,704-638-9000 x13184,704-638-9000 x12544,http://www.salisbury.va.gov/,35.6819923,-80.4903604,MH,1,,,,,,,,,1.0,1.0,1.0,1.0,1.0,1.0,,1.0,1.0,1.0,,,1.0,1,,1.0,1.0,,,1.0,,,,1.0,,,,,,,,,,1.0,1.0,1.0,,,1.0,,,1.0,1.0,,,,,,1.0,,1.0,,1.0,1.0,,1,,1.0,1.0,1.0,1.0,1.0,,,1.0,1.0,,1.0,1.0,1.0,1.0,1.0,1.0,1.0,1.0,1.0,,1.0,1.0,,1.0,1.0,1.0,,,,1.0,1.0,,1.0,,,1.0,1.0,1.0,,,,,,1.0,1.0,1.0,,1.0,,1.0,1.0,1.0,1.0,1.0,1.0,1.0,,,,,1.0,,,,,,1.0,,1.0,,,,,1.0,1.0,,1.0,,1.0,1.0,1.0,1.0,,,,,,,,,,,,,,,,,,,,,,,,
Family Advantage LLC,,3104 Highway 301 North,,Pleasant Hill,NC,27866,,Northampton,252-536-0600,Intake,,252-326-0090,http://www.familyadvantage.net,36.4999088,-77.5424389,MH,1,,1.0,,,,,,,1.0,1.0,1.0,1.0,1.0,1.0,1.0,,,1.0,,,,1,,,,,,,1.0,,1.0,,,1.0,1.0,1.0,,,1.0,,,,1.0,,,,,,1.0,1.0,,,,1.0,,1.0,1.0,1.0,,,1.0,1.0,,1,,,1.0,,1.0,1.0,1.0,1.0,1.0,1.0,,1.0,,,,1.0,1.0,1.0,,,1.0,1.0,,1.0,,,,,1.0,,,1.0,,,,,,,,,,,,,,,,,,,,,,,,,,,,,,,,,,,,,,,,,,,,,,,,,,,1.0,,,,,,,,,,,,,,,,,,,,,,,,
New Vision Home,,5004 Glenview Court,,Charlotte,NC,28215,,Mecklenburg,704-281-7261,,,,http://www.dreamsandvisions.net,35.2439309,-80.7684859,MH,1,,1.0,,,,,,,1.0,1.0,1.0,1.0,,1.0,,,,1.0,,,,1,,,,,,,1.0,,1.0,1.0,,1.0,1.0,,,,1.0,,,,1.0,,,,,,1.0,1.0,,,,1.0,,,1.0,1.0,,,1.0,,,1,,,1.0,,,1.0,,1.0,,,,,,,,,,,1.0,,,,,1.0,,,,,1.0,,,1.0,,,,,,,,,,,,,,,,,,,,,,,,,,,,,,,,,,,,,,,,,,,,,,,,,,,1.0,,,,,,,,,,,,,,,,,,,,,,,,
Alexander Youth Network,PRTF,6220 Thermal Road,Suite C,Charlotte,NC,28211,,Mecklenburg,704-366-8712 x1241,Intake,704-362-8470,,http://www.alexanderyouthnetwork.org,35.1581914,-80.7575986,MH,1,,1.0,,,,,,,1.0,1.0,1.0,1.0,1.0,,1.0,,,,,,,1,,,,,,1.0,1.0,,1.0,1.0,,1.0,1.0,1.0,1.0,1.0,1.0,,,,,,,,,,1.0,1.0,,,,,,,1.0,1.0,,,1.0,1.0,,1,,1.0,1.0,,1.0,,,1.0,1.0,,1.0,1.0,,,,1.0,,1.0,,,,,,1.0,,,,,,1.0,,1.0,,,,,,,,,,,,,,,1.0,1.0,,,1.0,1.0,,1.0,1.0,1.0,,,,,,,,,,,,,,,,,,,,1.0,,,,,,,,,1.0,,,,,,,,,,,,,,,,,,,,,,
Tender Loving Care Homes Inc,DBA NC Brookhaven Behavioral Hlth,2 Walden Ridge Drive,Suite 30,Asheville,NC,28803,,Buncombe,828-676-1657,,,,http://www.NCBrookhaven.com,35.4987821,-82.5228376,MH,1,,,,,,1.0,,,1.0,1.0,1.0,1.0,1.0,1.0,,1.0,1.0,,,,,1,,1.0,,,,1.0,1.0,1.0,,1.0,1.0,,,,,,,,,,1.0,,,,,,1.0,1.0,1.0,1.0,1.0,,,1.0,1.0,,1.0,,1.0,1.0,,1,1.0,,1.0,,,,,,,,,,,,,1.0,,,,,,,,,1.0,1.0,1.0,,1.0,,,1.0,,,,,,,,,,,,,,,,,,,,,,,,,,,,,,,,,,,,,,,,,,,,,,,1.0,,,,,,,,,,,,,,,,,,,,,,,,,,,,
Caiyalynn Burrell Child Crisis Center,Child Crisis Center,277 Biltmore,,Asheville,NC,28801,,Buncombe,877-277-8873,,,,http://daymarkrecovery.org,35.585364,-82.551804,MH,1,,1.0,,,,,,,1.0,,1.0,,,1.0,1.0,,1.0,1.0,,,,1,,,,,,1.0,1.0,,1.0,,,,,,,,,,,,1.0,1.0,,,1.0,,1.0,1.0,,,,,,,1.0,1.0,,,1.0,,,1,,,1.0,,1.0,1.0,,,,,,,,1.0,1.0,,1.0,1.0,,,,1.0,,1.0,,,,,,1.0,,1.0,,,,,,,,,,,,,,,,,,,,,,,,,,,,,,1.0,,,,1.0,1.0,,,,,,,,,1.0,,,,,,,1.0,,,,,,,,,,,,,,,,,,,,,,,,
Compass Health,Jennings Senior Care Hospital,1 Hospital Drive,Suite 201,Jennings,LA,70546,,Jefferson Davis,337-824-1558,,,,http://www.compasshealthcare.com,30.2407134,-92.6618605,MH,1,1.0,,,,,,,,1.0,,1.0,1.0,1.0,1.0,1.0,,1.0,,,,1.0,1,1.0,,,,,1.0,1.0,1.0,1.0,1.0,1.0,1.0,1.0,1.0,1.0,1.0,1.0,1.0,1.0,1.0,1.0,,,,1.0,,1.0,1.0,1.0,1.0,1.0,1.0,1.0,1.0,1.0,,1.0,1.0,1.0,,,1,,,1.0,,,,1.0,1.0,,,1.0,1.0,,1.0,1.0,1.0,1.0,1.0,,,,1.0,,,,1.0,1.0,1.0,1.0,,,1.0,,1.0,1.0,1.0,1.0,1.0,1.0,1.0,1.0,1.0,1.0,1.0,,,,,,,,,,,,,,,,,,1.0,,,,,,,,,,,,,,1.0,,,,,,,1.0,,,,,,,,,,,,,,,,,,,,,,,,
Reflections Behavioral Health,Discovery House Residential Program,212 Medical Drive,,Natchitoches,LA,71457,,Natchitoches,318-238-3696,,,,http://www.nrmchospital.org,31.7547262,-93.0751994,MH,1,,,,,1.0,,,,1.0,1.0,1.0,1.0,1.0,,,,1.0,,,,,1,1.0,1.0,,,,1.0,1.0,1.0,,1.0,,,,,,,,,,,1.0,1.0,,,1.0,,1.0,1.0,1.0,,1.0,1.0,1.0,1.0,1.0,,1.0,,1.0,,,1,,,1.0,1.0,,1.0,1.0,,1.0,1.0,1.0,,,1.0,1.0,,1.0,,,1.0,,1.0,,,1.0,1.0,1.0,,,1.0,,1.0,,,,,,,,,,,,,,,,,,,,,,,,,,,,,,1.0,,,,,1.0,,,,,,,,,1.0,,,,,,1.0,,,1.0,,,,,,,,,,,,,,,,,,,,,,
New Haven RTC,,2172 East 7200 South,,Spanish Fork,UT,84660,,Utah,801-794-1218,Intake,855-631-3262,,http://www.newhavenrtc.com,40.1004217,-111.6027715,MH,1,,1.0,,,,,,,1.0,1.0,1.0,1.0,1.0,1.0,1.0,,1.0,1.0,,,,1,,,,,,1.0,,,,1.0,,,,,1.0,,,,,,,,,,,,1.0,1.0,,,,,,,1.0,,,,1.0,,,1,,,,,,,1.0,1.0,1.0,,,,,,,,,,,,,,,1.0,,,,,1.0,,,1.0,,,,,,,,,,,,,,,,1.0,,,,1.0,,,,,1.0,,,,,,,,,,,,,,,,,,,1.0,,,,,,,1.0,,,,,,,,,,,,,,,,,,,,,,,,
New Haven RTC,,228 West 400 North,,Saratoga Springs,UT,84045,,Utah,801-423-5342,Intake,855-631-3262,,http://www.newhavenrtc.com,40.3693480334736,-111.922645568902,MH,1,,1.0,,,,,,,1.0,1.0,1.0,1.0,1.0,1.0,1.0,,1.0,1.0,,,,1,,,,,,1.0,,,,1.0,,,,,1.0,,,,,,,,,,,,1.0,1.0,,,,,,,1.0,,,,1.0,,,1,,,,,,,1.0,1.0,1.0,,,,,,,,,,,,,,,1.0,,,,,1.0,,,1.0,,,,1.0,,,,,,,,,,,,1.0,,,,1.0,,,,,1.0,,,,,,,,,,,,,,,,,,,1.0,,,,,,,1.0,,,,,,,,,,,,,,,,,,,,,,,,
Gateway Academy LLC,,11706 South 700 East,,Draper,UT,84020,,Salt Lake,801-523-3479,,,,http://www.gatewayacademy.net,40.539233,-111.872369,MH,1,,1.0,,,,,,,1.0,1.0,1.0,1.0,1.0,,1.0,,1.0,1.0,,,,1,1.0,1.0,,,,1.0,,,,1.0,,,,,1.0,,,,,,1.0,,,,,,,1.0,,,1.0,,,,1.0,,,,1.0,,,1,1.0,,,,1.0,,,1.0,1.0,1.0,,,,,,1.0,1.0,1.0,,,,,,1.0,,,,,1.0,,,1.0,,,,,,,,,,,,,,,,,,,,,,,,,,1.0,,,,,,,,,,,,,,,,,,,,,,,,,1.0,,,,,,,,,,,,,,,,,,,,,,,,
Renewed Hope Ranch,,425 East 6000 North,,Cedar City,UT,84721,,Iron,435-531-0040,Intake,435-691-4318,,http://www.renewedhoperanch.com/,37.7881255,-113.0576961,MH,1,,1.0,,,,,,,1.0,1.0,1.0,1.0,1.0,1.0,1.0,,1.0,1.0,,,,1,1.0,1.0,,,,1.0,,,1.0,1.0,,1.0,,,1.0,,1.0,,,,1.0,,,,,,1.0,1.0,,,1.0,,,,1.0,1.0,,,1.0,,,1,,,1.0,,,,,1.0,1.0,,,,,,,,1.0,1.0,,,,1.0,,1.0,,,,,1.0,,,1.0,,,,,,,,,,,,,,,,,,,,,,,,,,,1.0,,,,,,,1.0,,,,,,,,,,1.0,,,,,,,1.0,,,,,,,,,,,,,,,,,,,,,,,,
Avalon Hills,Adolescent,175 East 100 North,,Paradise,UT,84328,,Cache,435-938-6060,Intake,,435-938-6001,http://www.avalonhills.org,41.5672998,-111.8300269,MH,1,,1.0,,,,,,,1.0,1.0,1.0,1.0,1.0,1.0,1.0,,1.0,1.0,,,,1,1.0,,,,,1.0,1.0,1.0,1.0,1.0,1.0,1.0,1.0,,,,,,,,,,,,,,1.0,,,,,,,,1.0,,,,,,,1,,,,,,,1.0,1.0,1.0,,,1.0,,,1.0,1.0,1.0,1.0,,,,1.0,,1.0,,,,,1.0,,,1.0,,,,,,,,,,,,,1.0,,1.0,1.0,,,1.0,1.0,1.0,,1.0,1.0,1.0,,,,,,,,,,,,1.0,,,,,,,1.0,,,,,,1.0,1.0,,,,,,,,,,,,,,,,,,,,,,,,
Avalon Hills,Adult,550 West Mount Pisgah Road,,Paradise,UT,84328,,Cache,435-938-6080,Intake,435-938-6060,,http://www.avalonhills.org,41.5766953,-111.8514536,MH,1,,,1.0,,,,,,1.0,1.0,1.0,1.0,1.0,1.0,1.0,,1.0,,,,,1,1.0,,,,,1.0,1.0,1.0,1.0,1.0,1.0,1.0,1.0,,,,,,,,,,,,,,1.0,,,,,,1.0,,1.0,,1.0,,,,1.0,1,,,,,,,1.0,1.0,1.0,,,1.0,1.0,1.0,1.0,1.0,1.0,1.0,,,,1.0,,,1.0,1.0,1.0,,1.0,,,1.0,,,,,,,,,,,,,1.0,,1.0,1.0,,,1.0,1.0,1.0,,1.0,1.0,1.0,,,,,,,,,,,,1.0,,,,,,,1.0,,,,,,1.0,,,1.0,,,,,,,,,,,,,,,,,,,,,,
Logan River Academy Inc,,1683 South Highway 89,,Logan,UT,84321,,Cache,866-755-8400,Intake,435-755-8400,,http://loganriver.com,41.7032974,-111.853382,MH,1,,1.0,,,,,,,1.0,,1.0,1.0,1.0,,1.0,,,1.0,,,,1,,,,,,1.0,,,,1.0,,1.0,,,1.0,,1.0,,,,,,,,,,1.0,1.0,,,,,,,1.0,1.0,,,1.0,1.0,,1,,,1.0,,,,1.0,1.0,1.0,1.0,,,,,,,,1.0,,,,,,1.0,,,,,1.0,,,1.0,,,,,,,,,,,,,,,,,,,,,,,,,,,,,,,,,,,,,,,,,,,,,,,,,,,,,,,,,,,,,,,,,,,,,,,,,,,
Red Circle Lodge,,930 Memorial Street,,Hildale,UT,84784,,Washington,435-874-1467,,,,http://www.redcirclelodge.com,37.0059536,-112.9642587,MH,1,,1.0,,,,,,,1.0,1.0,1.0,1.0,1.0,1.0,1.0,,,1.0,,,,1,,,,,,1.0,1.0,1.0,1.0,1.0,1.0,1.0,1.0,1.0,1.0,1.0,1.0,1.0,1.0,1.0,,,,,,,1.0,1.0,,,,,,,1.0,,,,1.0,,,1,,,1.0,,,,,,,,,,,,,,1.0,1.0,,,,,,1.0,,,,1.0,1.0,,,1.0,,,,,,,,,,,,,,,,,,,,,,,,,,,,,,,,,,,,,,,,,,,,,,,,,,,1.0,,,,,,,,,,,,,,,,,,,,,,,,
Veterans Affairs Medical Center,Mental Health Service,1970 Roanoke Boulevard,,Salem,VA,24153,6404.0,Salem,540-982-2463 x2515,Intake,540-982-2463 x2611,,http://www.va.gov/,37.27452,-80.019886,MH,1,,,,,,,,,1.0,1.0,1.0,1.0,,1.0,,1.0,1.0,1.0,,,1.0,1,,1.0,1.0,,,1.0,,,,1.0,1.0,,,,,,,,,1.0,1.0,1.0,,,1.0,,1.0,1.0,1.0,1.0,,,1.0,1.0,1.0,,1.0,1.0,1.0,1.0,,1,1.0,1.0,1.0,1.0,1.0,,1.0,1.0,1.0,1.0,1.0,1.0,,1.0,1.0,1.0,1.0,1.0,1.0,1.0,,1.0,1.0,,1.0,1.0,1.0,,,,,1.0,,1.0,,1.0,1.0,1.0,1.0,,,1.0,,1.0,1.0,,1.0,1.0,1.0,1.0,1.0,1.0,,1.0,1.0,1.0,1.0,,1.0,,,1.0,,,,,,1.0,1.0,1.0,,,,,1.0,1.0,1.0,1.0,,,,1.0,1.0,,,,,,,,,,,,,,,,,,,,,,,,
UMFS,Leland House,13525 Leland Road,,Centreville,VA,20120,,Fairfax,703-222-3558 x102,,,,http://www.umfs.org,38.8431373,-77.4149267,MH,1,,1.0,,,,,,,1.0,1.0,1.0,1.0,,1.0,1.0,,1.0,1.0,,,,1,,,,,,,1.0,,,1.0,,1.0,1.0,,,,1.0,,,,1.0,,,,,1.0,,1.0,,,,1.0,,,1.0,1.0,,,1.0,,,1,,1.0,1.0,,1.0,,1.0,1.0,1.0,,1.0,1.0,,,1.0,,,1.0,,,,1.0,,1.0,,,,,,1.0,,1.0,,1.0,,1.0,1.0,1.0,1.0,1.0,1.0,1.0,1.0,1.0,1.0,1.0,1.0,1.0,,1.0,1.0,1.0,1.0,1.0,1.0,1.0,1.0,,,,,,,,,,,,,,,,,,,1.0,,,,,,,1.0,,,,,,,,,,,,,,,,,,,,,,,,
Center for Discovery,Fairfax,5343 Summit Drive,,Fairfax,VA,22030,6523.0,Fairfax,866-862-3631,,,,http://centerfordiscovery.com/locations/fairfax/,38.8371168,-77.3870348,MH,1,,1.0,,,,,,,1.0,1.0,1.0,1.0,1.0,,,,,1.0,,,,1,,,,,,1.0,,,,1.0,1.0,,,,,,,,,,,,,,,,,,,,,,,,,,,,,,,1,,,1.0,,,,1.0,,1.0,1.0,,,,,,,,,,,,,,1.0,,,,,1.0,,,1.0,,,,,,,,,,,,,,,,,,,,,,,,,,,,,,,,,,,,,,,,,,,,,,,,,,,1.0,,,,,,,,,,,,,,,,,,,,,,,,
Center for Discovery,Alexandria,7809 Schelhorn Road,,Alexandria,VA,22306,2825.0,Fairfax,866-482-3876,,,,http://centerfordiscovery.com/locations/alexandria/,38.7455307,-77.0771098,MH,1,,,1.0,,,,,,1.0,1.0,1.0,1.0,1.0,,,,,,,,,1,,,,,,1.0,,,1.0,1.0,1.0,1.0,1.0,1.0,1.0,1.0,1.0,1.0,1.0,,,,,,,,,,,,,,,,,,,,,,,1,,,1.0,,,,1.0,,1.0,1.0,,,,,,,,,,,,,,,1.0,1.0,,,1.0,,,1.0,,,,,,,,,,,,,,,,,,,,,,,,,,,,,,,,,,,,,,,,,,,,,,,,,,,1.0,,,,,,,,,,,,,,,,,,,,,,,,
Center for Discovery,McLean,5949 Oakdale Road,,McLean,VA,22101,3331.0,Fairfax,866-944-9796,,,,http://centerfordiscovery.com/locations/mclean/,38.9261297,-77.1388766,MH,1,,,1.0,,,,,,1.0,1.0,1.0,1.0,1.0,,,,,,,,,1,,,,,,1.0,,,1.0,1.0,1.0,1.0,1.0,1.0,1.0,1.0,1.0,1.0,1.0,,,,,,,,,,,,,,,,,,,,,,,1,,,1.0,,,,1.0,,1.0,1.0,,,,,,,,,,,,,,,1.0,1.0,,,1.0,,,1.0,,,,,,,,,,,,,,,,,,,,,,,,,,,,,,,,,,,,,,,,,,,,,,,,,,,,,1.0,,,,,,,,,,,,,,,,,,,,,,
Sunrise Childrens Services,Psych Res Program/Woodlawn Campus,400 Cunningham Way ,,Danville,KY,40422,8339.0,Boyle,859-936-3481,Intakes,859-236-5507,502-538-1000,http://www.sunrise.org,37.6502688,-84.7923852,MH,1,,1.0,,,,,,,1.0,1.0,1.0,1.0,1.0,1.0,1.0,,1.0,1.0,,,,1,,,,,,1.0,1.0,,1.0,1.0,,1.0,1.0,1.0,,1.0,1.0,,,,,,,,,,1.0,1.0,,,,1.0,,,1.0,1.0,,,1.0,,,1,,,1.0,,,,1.0,1.0,1.0,1.0,,1.0,,,,1.0,1.0,1.0,,,,,1.0,1.0,,,,,,1.0,,1.0,,,,,1.0,,,,,,,,,,,,,,,1.0,1.0,,,1.0,1.0,,,,,1.0,,,,,,,,1.0,,,,,,1.0,,,,,,,1.0,,,,,,,,,,,,,,,,,,,,,,,,
Spectrum Care Academy,London I and II,1551 Lick Fork Road,,London,KY,40741,,Laurel,606-862-6664,,,,http://www.spectrumcareacademy.com,37.09633,-83.982115,MH,1,,1.0,,,,,,,1.0,1.0,1.0,1.0,1.0,1.0,1.0,,1.0,1.0,,,,1,,,,,,,1.0,,,,,,,,,,,,,,,,,,,,1.0,,,,,,,,1.0,1.0,,,1.0,1.0,,1,,1.0,1.0,,1.0,1.0,1.0,1.0,1.0,1.0,,,,,1.0,1.0,,,,1.0,,1.0,,1.0,,,,,1.0,,,1.0,,,,,,,,,,,,,1.0,,,,,,,1.0,,,1.0,1.0,,,,,,,,,,,,,,,,,,,,1.0,,,,,,,1.0,,,,,,,,,,,,,,,,,,,,,,,,
Kentucky River Community Care Inc,Crossroads Crisis Services,310 Roy Campbell Drive,,Hazard,KY,41701,,Perry,606-436-2140 x7313,Intakes,606-436-5761 x7200,606-666-7591 x1111,http://www.krccnet.com,37.2719032,-83.2316956,MH,1,,,,,,,,1.0,1.0,,1.0,1.0,1.0,1.0,,,1.0,,,,,1,,1.0,,,,1.0,1.0,1.0,,1.0,1.0,1.0,1.0,1.0,,1.0,1.0,1.0,1.0,1.0,1.0,1.0,,,1.0,,1.0,1.0,1.0,1.0,1.0,1.0,1.0,1.0,1.0,1.0,1.0,1.0,1.0,1.0,1.0,1,1.0,1.0,1.0,1.0,1.0,,1.0,,1.0,1.0,1.0,,,,,1.0,,1.0,1.0,1.0,,,1.0,1.0,1.0,1.0,1.0,,,1.0,,1.0,,,,,,,,,,,,,,,,,,,,,,,,,,,,,,,,,,,,,,,,,,,,,,,,,,,,,,,,,,,,,,,,,,,,,,,,,,,
LifeSkills Inc,Childrens Crisis Stabilization Unit,501 Chestnut Street,,Bowling Green,KY,42101,,Warren,270-901-5000 x1310,Intake,270-901-5712,,http://www.lifeskills.com,36.995225,-86.434561,MH,1,,1.0,,,,,,,1.0,1.0,1.0,1.0,1.0,1.0,1.0,,1.0,1.0,,,,1,,,,,,1.0,1.0,,1.0,1.0,,1.0,1.0,,,,,,1.0,,1.0,1.0,,1.0,1.0,,1.0,1.0,,,,1.0,,,1.0,1.0,,,1.0,,,1,,,1.0,,,,,1.0,1.0,,,,,,,1.0,1.0,1.0,,,1.0,,,1.0,,,,,,1.0,,1.0,,,,,,,,,,,,,1.0,,,,1.0,,,1.0,,,1.0,1.0,1.0,,,,,1.0,,,,,1.0,,,,,,,,,1.0,,,,,,,1.0,,,,,,,,,,,,,,,,,,,,,,,,
McLean Hospital,,115 Mill Street,,Belmont,MA,2478,,Middlesex,617-855-2000,Intake,617-855-3141,,http://www.mcleanhospital.org,42.395482,-71.190961,MH,1,1.0,,,,,,,,1.0,1.0,1.0,1.0,1.0,1.0,1.0,1.0,1.0,,,,1.0,1,1.0,1.0,,,,1.0,1.0,1.0,,1.0,1.0,,,,,,,,,,1.0,1.0,,,1.0,,1.0,,1.0,1.0,1.0,,1.0,,1.0,,1.0,1.0,1.0,,1.0,1,1.0,1.0,1.0,1.0,1.0,1.0,1.0,1.0,1.0,,1.0,,,1.0,1.0,,1.0,1.0,,,,1.0,,,1.0,1.0,1.0,,,1.0,,1.0,,1.0,,1.0,,1.0,1.0,1.0,1.0,1.0,1.0,1.0,1.0,1.0,1.0,1.0,1.0,1.0,1.0,1.0,,1.0,1.0,1.0,1.0,,,1.0,1.0,1.0,,,,1.0,1.0,1.0,1.0,1.0,,,,,,1.0,,,,1.0,1.0,1.0,,,1.0,,,,,,,,,,,,,,,,,,,,,,
Gunderson Residence,,5 Spruce Avenue,,Lee,MA,2138,,Middlesex,888-657-5699,,,,http://www.mcleanhospital.org/programs/gunderson-residence/overview,42.3752951,-71.1506512,MH,1,,,1.0,,,,,,1.0,1.0,1.0,1.0,1.0,1.0,,,1.0,1.0,,,,1,,,,,,1.0,,,,,,,,,,,,,,,,,,,1.0,,1.0,,,,,,,,1.0,,1.0,,1.0,,1.0,1,,,1.0,,,,,,1.0,,,,,1.0,1.0,1.0,1.0,1.0,,,,1.0,1.0,,1.0,1.0,,,,1.0,,,,1.0,,,1.0,,1.0,,,,,,1.0,,1.0,,,1.0,1.0,1.0,1.0,1.0,1.0,1.0,1.0,,,,,,,,,,,,,,,,,,,1.0,,,,,,1.0,1.0,,,,,,,,,,,,,,,,,,,,,,,,
Cambridge Eating Disorder Center,(CEDC),3 Bow Street,,Cambridge,MA,2138,,Middlesex,617-547-2255,Intake,617-547-2255 x222,,http://www.eatingdisordercenter.org,42.3719993,-71.1159555,MH,1,,,,,,,,1.0,1.0,1.0,1.0,1.0,1.0,,1.0,,1.0,,,,,1,1.0,1.0,,,,1.0,,,1.0,1.0,,,,,,,,,,,,,,,,,,1.0,,,,,,,,,,,,,,1,1.0,1.0,1.0,,,,1.0,,,,,,,,,,,,,1.0,,,,1.0,1.0,1.0,1.0,,1.0,,,1.0,,,,,,,,,,,,,,,,,,,,,,,,,,,,,,,,,,,,,,,,,,,,1.0,,,1.0,,,,,,1.0,,,,,,,,,,,,,,,,,,,,,,
Open Sky Community Services,Ives House Residence,154 Vernon Street,,Worcester,MA,1610,2038.0,Worcester,508-757-8636,Intake,,508-755-0333,http://www.openskycs.org,42.2442007,-71.7969761,MH,1,,1.0,,,,,,,1.0,1.0,1.0,1.0,1.0,,1.0,,,1.0,,,,1,,,,,,,,,,1.0,,1.0,1.0,,,,,,,,,,,,,1.0,,,,,,,,,1.0,1.0,,,,,,1,,,,,1.0,,1.0,,1.0,,1.0,,,,,1.0,,1.0,1.0,,,,1.0,1.0,,,,,,1.0,,,,,,,,,,,,,,,,,,,,,,,,,,,,,,,,,,,,,,,,,,,,,,,,,,,,,1.0,,,,1.0,,1.0,,,,,,,,,,,,,,,,1.0,,
Whitfield Regional Hospital IPF,Gerpsych/Adult Psych,105 Highway 80 East,,Demopolis,AL,36732,,Marengo,334-287-2507,,,,http://www.bwwmh.com/tombigbeeoutreach.html,32.5038111,-87.837458,MH,1,,,,,,,,,,,1.0,1.0,,1.0,1.0,,,1.0,,,1.0,1,,1.0,,,,1.0,1.0,1.0,1.0,1.0,1.0,1.0,,,,,,,,1.0,,,1.0,,,,1.0,1.0,1.0,,1.0,1.0,1.0,1.0,1.0,,1.0,1.0,1.0,1.0,,1,,1.0,1.0,1.0,,1.0,1.0,1.0,,1.0,1.0,1.0,,1.0,1.0,1.0,1.0,1.0,,,,1.0,,,1.0,1.0,1.0,1.0,,,1.0,1.0,,1.0,1.0,1.0,1.0,1.0,1.0,,,,,,1.0,,1.0,1.0,,,1.0,1.0,,1.0,1.0,1.0,1.0,1.0,,,,1.0,,,,,1.0,1.0,1.0,1.0,1.0,,1.0,,,1.0,1.0,,,1.0,1.0,1.0,1.0,,,,,,,,,,,,,,,,,,,,,,,,
Community Connections LLC,Greenway,2301 East Greenway Road,,Phoenix,AZ,85022,,Maricopa,602-535-8313,Intake,623-242-8460,,http://www.communityconnectionsaz.org,33.626007,-112.0327562,MH,1,,,1.0,,,,,,1.0,1.0,1.0,1.0,1.0,1.0,1.0,,,,,,,1,,,,,,,1.0,,,,,,,,,,,,,,,,,,,,,,,,,,,,,,,,,,,1,,,,,,,1.0,,,,,,,,,,,,,,,,,,1.0,1.0,1.0,,1.0,,,1.0,,,,,,,,,,,,,,,,,,,,,,,,,,,1.0,,,,,,,,,,,,,,,,,,,,,,,,,,1.0,,,,,,,,,,,,,,,,,,,,,,
Community Connections LLC,Union Hills,18215 North 11th Drive,,Phoenix,AZ,85023,,Maricopa,602-283-5267,Intake,623-242-8460,,http://www.communityconnectionsaz.org,33.6515269,-112.0874353,MH,1,,,1.0,,,,,,1.0,1.0,1.0,1.0,1.0,1.0,1.0,,,,,,,1,,,,,,,1.0,,,,,,,,,,,,,,,,,,,,,,,,,,,,,,1.0,,,,,1,,,,,,,1.0,,,,,,,,,,,,,,,,,,1.0,1.0,1.0,,1.0,,,1.0,,,,,,,,,,,,,,,,,,,,,,,,,,,1.0,,,,,,,,,,,,,,,,,,,,,,,,,,1.0,,,,,,,,,,,,,,,,,,,,,,
Homes of Personal Enrichment and,Sobriety Services/HOPESS,3338 West Kings Avenue,,Phoenix,AZ,85053,,Maricopa,480-660-5775,,,,http://www.myhopess.com,33.6357774,-112.129585,MH,1,,,1.0,,,,,,1.0,1.0,1.0,1.0,1.0,1.0,1.0,,1.0,,,,,1,,1.0,,,,1.0,1.0,1.0,1.0,1.0,,1.0,,,,,,,,,1.0,,1.0,,,,1.0,1.0,1.0,1.0,1.0,1.0,1.0,1.0,1.0,,1.0,,1.0,1.0,1.0,1,,1.0,1.0,1.0,1.0,1.0,1.0,1.0,1.0,1.0,1.0,1.0,1.0,1.0,1.0,1.0,1.0,1.0,1.0,1.0,,1.0,1.0,,1.0,1.0,1.0,1.0,1.0,,,1.0,,1.0,,1.0,1.0,1.0,1.0,1.0,1.0,1.0,1.0,1.0,1.0,1.0,1.0,1.0,1.0,1.0,1.0,1.0,1.0,1.0,1.0,1.0,1.0,1.0,,,,1.0,,,1.0,1.0,1.0,1.0,1.0,1.0,,,,,,1.0,,,,1.0,1.0,1.0,1.0,,,,,,,,,,,,,,,,,,,,,,,,
Community Connections LLC,39th Avenue,17604 North 39th Avenue,,Glendale,AZ,85308,,Maricopa,602-761-2430,Intake,623-242-8640,,http://www.communityconnectionsaz.org,33.6457365,-112.1433708,MH,1,,,1.0,,,,,,1.0,1.0,1.0,1.0,1.0,1.0,1.0,,,,,,,1,,,,,,,1.0,,,,,,,,,,,,,,,,,,,,,,,,,,,,,,,,,,,1,,,,,,,1.0,,,,,,,,,,,,,,,,,,1.0,1.0,1.0,,1.0,,,1.0,,,,,,,,,,,,,,,,,,,,,,,,,,,1.0,,,,,,,,,,,,,,,,,,,,,,,,,,1.0,,,,,,,,,,,,,,,,,,,,,,
Florence Crittenton,Therapeutic Group Home,715 West Mariposa Street,,Phoenix,AZ,85013,,Maricopa,602-274-7318 x109,Intake,,602-274-7318 x177,http://www.flocrit.org,33.5081554,-112.0829409,MH,1,,1.0,,,,,,,1.0,1.0,1.0,1.0,1.0,,,,,1.0,,,,1,,,,,,1.0,1.0,,1.0,1.0,,1.0,1.0,1.0,,,,1.0,,,,,,,,,1.0,1.0,,,,1.0,,,1.0,1.0,,,1.0,,,1,,,,,,,1.0,1.0,,,,,,,,,,,,,,,,1.0,,,,1.0,,1.0,,,,,,,,,,,,,,,1.0,,,,1.0,,1.0,1.0,,,1.0,1.0,1.0,,,,,,,,,1.0,,,,,,,,,,1.0,1.0,,,,,,1.0,,,,,,,,,,,,,,,,,,,,,,,,
BBC Scottsdale,Hopess Shaw Butte,4444 West Shaw Butte Drive,,Glendale,AZ,85304,,Maricopa,480-660-5775,,,,http://www.myhopess.com,33.5953394,-112.1549908,MH,1,,,1.0,,,,,,1.0,1.0,1.0,1.0,1.0,1.0,1.0,,1.0,,,,,1,,,,,,1.0,1.0,1.0,1.0,1.0,,1.0,,,,,,,,,1.0,,1.0,,,,1.0,1.0,1.0,1.0,1.0,1.0,1.0,1.0,1.0,,1.0,,1.0,1.0,1.0,1,,1.0,1.0,1.0,1.0,1.0,1.0,1.0,1.0,1.0,1.0,1.0,1.0,1.0,1.0,1.0,1.0,1.0,1.0,1.0,,1.0,1.0,,1.0,1.0,1.0,1.0,1.0,,,1.0,,1.0,,1.0,1.0,1.0,1.0,1.0,1.0,1.0,1.0,1.0,1.0,1.0,1.0,1.0,1.0,1.0,1.0,1.0,1.0,1.0,1.0,1.0,1.0,1.0,,,,1.0,1.0,,1.0,1.0,1.0,1.0,1.0,1.0,,,,,,1.0,,,,1.0,1.0,1.0,1.0,,,,,,,,,,,,,,,,,,,,,,,,
Spring Ridge Academy,,13690 South Burton Road,,Mayer,AZ,86333,,Yavapai,928-632-4602 x1140,Intake,928-632-4602,,http://springridgeacademy.com,34.3459472,-112.1682771,MH,1,,,,,,,,1.0,1.0,1.0,1.0,1.0,1.0,1.0,1.0,,1.0,1.0,,,,1,1.0,,,,,1.0,,,,1.0,1.0,,,,,,,,,1.0,1.0,,,,,,1.0,1.0,,,1.0,,,,1.0,1.0,,,1.0,,,1,,,,,,,,1.0,1.0,,1.0,1.0,,,,,,1.0,,,,,,1.0,,,,,1.0,,,1.0,,,,,,,,,,,,,,,,,,,,,,,,,,,,,,1.0,,,,,,,,,,,,,,,,,,,,,1.0,,,,,,,,,,,,,,,,,,,,,,,,
Northern Arizona VA Healthcare System,Mental Health and Behavioral Sciences,500 Highway 89 North,,Prescott,AZ,86313,,Yavapai,928-445-4860 x5303,Intakes,928-776-6071 x4843,928-717-7500,http://www.prescott.va.gov/,34.5539029,-112.4525611,MH,1,,,,,,,,,1.0,1.0,1.0,1.0,1.0,1.0,,,1.0,1.0,,,,1,1.0,1.0,1.0,,,,,,,,,,,,,,,,,1.0,1.0,1.0,,,1.0,,1.0,1.0,1.0,,,,1.0,,1.0,,1.0,1.0,1.0,1.0,1.0,1,,1.0,1.0,1.0,1.0,,1.0,1.0,1.0,1.0,1.0,1.0,1.0,1.0,1.0,1.0,1.0,1.0,1.0,1.0,,1.0,1.0,1.0,1.0,1.0,1.0,,,,,1.0,,,,,,,,,,,,,,,,,,,,,,,,,,,1.0,,,,,,,1.0,1.0,,,,,,,,1.0,1.0,,1.0,,,,,1.0,,,,,,,,,,,,,,,,,,,,,,,,
Reflections Recovery Center,,957 Black Drive,Suite C,Prescott,AZ,86305,,Yavapai,928-350-8275,Intakes,866-790-7979,866-418-1213,http://,34.5660846,-112.4837571,MH,1,,,1.0,,,,,,1.0,1.0,1.0,1.0,1.0,1.0,1.0,,1.0,,,,,1,1.0,1.0,,,,1.0,,,,1.0,,,,,,,,,,,1.0,,,,,,1.0,1.0,1.0,1.0,1.0,1.0,1.0,1.0,1.0,,1.0,,1.0,1.0,1.0,1,1.0,1.0,1.0,1.0,1.0,,1.0,1.0,1.0,1.0,1.0,1.0,,1.0,1.0,1.0,1.0,1.0,,1.0,,,,,1.0,1.0,,,1.0,,,,,,,,,,,,,,,,,,,,,,,,,,,,,,,,,,,,,,,,,,,,,,,,,,,,,,,,1.0,,,,,,,,,,,,,,,,,,,,,,
Sierra Tucson,,39580 South Lago del Oro Parkway,,Tucson,AZ,85739,,Pinal,520-624-4000,Intakes,800-842-4487,855-373-7752,http://www.sierratucson.com,32.5170419,-110.8884831,MH,1,,,,,,,,1.0,1.0,1.0,1.0,1.0,1.0,1.0,1.0,,,,,,1.0,1,1.0,1.0,,,,1.0,,,,1.0,,,,,,,,,,,,,,,,,1.0,1.0,1.0,1.0,1.0,,,,1.0,,,,1.0,,,1,,,1.0,,,,1.0,1.0,1.0,,,1.0,,1.0,1.0,1.0,1.0,1.0,,,,1.0,,,1.0,1.0,1.0,,1.0,,,,,1.0,,,1.0,,,,1.0,,,,1.0,1.0,1.0,1.0,,,1.0,1.0,,1.0,1.0,1.0,1.0,,1.0,,1.0,,,,,,,1.0,1.0,1.0,,,,,,1.0,1.0,,,1.0,1.0,1.0,,,1.0,,,,,,,,,,,,,,,,,,,,,,
Rosewood Centers for Eating Disorders,,36075 South Rincon Road,,Wickenburg,AZ,85390,,Maricopa,928-684-9594,Intake,800-845-2211 x0,,http://www.rosewoodranch.com,34.0270139,-112.7419972,MH,1,,,,1.0,,,,,1.0,1.0,1.0,1.0,1.0,1.0,1.0,,,,,,1.0,1,,,,,,1.0,1.0,1.0,1.0,1.0,,1.0,1.0,,,,,,,1.0,,,,,,,,,,,,,,,,,,,,,,1,,,,,,,1.0,1.0,1.0,,,,,1.0,1.0,,1.0,1.0,,,,1.0,,1.0,1.0,1.0,1.0,,1.0,,,1.0,,,,,1.0,,,,,,,,1.0,1.0,,,,,1.0,1.0,,,1.0,1.0,1.0,,1.0,,,,,,,,,1.0,1.0,1.0,,,,,,1.0,1.0,,,,,1.0,,,1.0,,,,,,,,,,,,,,,,,,,,,,
Cottonwood Tucson,,4110 West Sweetwater Drive,,Tucson,AZ,85745,,Pima,520-743-0411,Intake,800-877-4520,,http://www.cottonwoodtucson.com,32.2819584,-111.0524018,MH,1,,,1.0,,,,,,1.0,1.0,1.0,1.0,1.0,1.0,1.0,,,,,,1.0,1,1.0,1.0,,,,1.0,,,,1.0,1.0,,,,,,,,,1.0,1.0,,,,,,1.0,1.0,1.0,,,,,,,,,,1.0,,,1,,,1.0,,,,1.0,,1.0,,,1.0,,,,,,1.0,,,,1.0,,,1.0,1.0,1.0,1.0,1.0,,,,,,,,,,,,,,,,,,,,,,,,,,,,,,1.0,,,1.0,,,,,,1.0,1.0,1.0,,,,,,,,,,,,1.0,,,1.0,,,,,,,,,,,,,,,,,,,,,,
Impact Medical Group,,870 West Miracle Mile,Building 2,Tucson,AZ,85705,,Pima,520-987-1818,Intake,520-203-8101,,http://www.impactmedaz.com,32.2614179,-110.9861034,MH,1,,,1.0,,,,,,1.0,,1.0,1.0,1.0,1.0,1.0,,1.0,,,,,1,,,,,,1.0,,,1.0,1.0,,,,,,,,,,,1.0,,,,,1.0,1.0,1.0,1.0,,,1.0,1.0,1.0,1.0,,1.0,,1.0,,,1,,,1.0,,1.0,1.0,1.0,1.0,,1.0,,1.0,,,,1.0,,1.0,1.0,1.0,,1.0,1.0,,1.0,1.0,1.0,1.0,1.0,,,1.0,,,,,,,,,,,,,,,,,,,,,,,,,,1.0,,,,1.0,1.0,,,1.0,1.0,,1.0,1.0,,,,,,,,,,,,,1.0,,,,,,,,,,,,,,,,,,,,,,,,
Mountain Valley Child and Family Servs,,7818 Bar Du Lane,,Sacramento,CA,95829,9469.0,Sacramento,916-362-8292,Intakes,530-966-8831,530-265-9057 x226,http://mountainvalleyfamilyservices.net,38.473234,-121.344477,MH,1,,1.0,,,,,,,1.0,1.0,1.0,1.0,1.0,,1.0,,1.0,1.0,,,,1,,,,,,,1.0,1.0,,1.0,,1.0,1.0,1.0,1.0,,,,,,1.0,,,,,1.0,,1.0,,,,,,,1.0,1.0,,,1.0,,1.0,1,,1.0,1.0,,1.0,1.0,1.0,1.0,1.0,1.0,,,1.0,,,1.0,,1.0,1.0,,,,1.0,1.0,1.0,,,,,1.0,,1.0,,,,,,,,,,,,,1.0,,,,,,,1.0,,,,1.0,,,1.0,,,1.0,,,,1.0,1.0,,,1.0,,,,,,1.0,1.0,,,,,1.0,1.0,,,,,,,,,,,,,,,,,,,,,,,,
Mountain Valley Child and Family Servs,,9200 Sweet Acacia Way,,Sacramento,CA,95829,,Sacramento,916-362-8292,Intakes,530-966-8831,530-265-9057 x226,http://mountainvalleyfamilyservices.net,38.4856705,-121.3576078,MH,1,,1.0,,,,,,,1.0,1.0,1.0,1.0,1.0,,1.0,,1.0,1.0,,,,1,,,,,,,1.0,1.0,,1.0,,1.0,1.0,1.0,1.0,,,,,,1.0,,,,,1.0,,1.0,,,,,,,1.0,1.0,,,1.0,,1.0,1,,1.0,1.0,,1.0,1.0,1.0,1.0,1.0,1.0,,,1.0,,,1.0,,1.0,1.0,,,,1.0,1.0,1.0,,,,,1.0,,1.0,,,,,,,1.0,,,,,,1.0,,,,,,,1.0,,,1.0,,,,1.0,,,1.0,,,,1.0,1.0,,,1.0,,,,,,1.0,1.0,,,,,1.0,1.0,,,,,,,,,,,,,,,,,,,,,,,,
Center for Discovery,Danville,212 La Questa Drive,,Danville,CA,94526,3511.0,Contra Costa,866-862-3631,,,,http://centerfordiscovery.com/locations/danville/,37.8174208,-121.989987,MH,1,,1.0,,,,,,,1.0,1.0,1.0,1.0,1.0,,,,,1.0,,,,1,,,,,,1.0,,,,1.0,1.0,,,,,,,,,,,,,,,,,,,,,,,,,,,,,,,1,,,1.0,,,,1.0,,1.0,1.0,,,,,,,,,,,,,,1.0,,,,,1.0,,,1.0,,,,,,,,,,,,,,,,,,,,,,,,,,,,,,,,,,,,,,,,,,,,,,,,,,,1.0,,,,,,,,,,,,,,,,,,,,,,,,
Mountain Valley Child and Family Servs,,6171 Bradshaw Road,,Sacramento,CA,95829,,Sacramento,916-362-8292,Intakes,530-966-8831,530-265-9057 x226,http://mountainvalleyfamilyservices.net,38.514938,-121.332542,MH,1,,1.0,,,,,,,1.0,1.0,1.0,1.0,1.0,,1.0,,1.0,1.0,,,,1,,,,,,,1.0,1.0,,1.0,,1.0,1.0,1.0,1.0,,,,,,1.0,,,,,1.0,,1.0,,,,,,,1.0,1.0,,,1.0,,1.0,1,,1.0,1.0,,1.0,1.0,1.0,1.0,1.0,1.0,,,1.0,,,1.0,,1.0,1.0,,,,1.0,1.0,1.0,,,,,1.0,,1.0,,,,,,,,,,,,,,,,,,,,,,,,,,,,,,1.0,,,,1.0,1.0,,,1.0,,,,,,1.0,1.0,,,,,1.0,1.0,,,,,,,,,,,,,,,,,,,,,,,,
Telecare Corporation,Redwood Place,18949 Redwood Road,,Castro Valley,CA,94546,,Alameda,510-881-1606 x1021,Intake,510-881-1606 x1011,,http://Telecarecorp.com,37.7078389,-122.0746454,MH,1,,,1.0,,,,,,,,1.0,1.0,1.0,1.0,1.0,,,1.0,,,,1,,,,,,1.0,1.0,1.0,1.0,1.0,,1.0,,,,1.0,,,,,,,,,,,,1.0,,,,,1.0,1.0,1.0,,1.0,,1.0,,1.0,1,,1.0,1.0,1.0,,,1.0,1.0,1.0,,1.0,1.0,1.0,1.0,1.0,1.0,1.0,1.0,,,,1.0,1.0,,1.0,1.0,1.0,,1.0,,,,,,,,1.0,,,,,,,,,,,,,,,,,,,,,,,,,,,,,,,1.0,1.0,1.0,,,,,,1.0,,,,,,1.0,,,1.0,,,,,,,,,,,,,,,,,,,,,,
Progress Foundation,Clay Street,2210 Clay Street,,San Francisco,CA,94110,,San Francisco,415-776-4647,Intake,415-861-0828 x138,,http://progressfoundation.org,37.7496,-122.4153,MH,1,,,1.0,,,,,,1.0,1.0,1.0,1.0,1.0,1.0,1.0,,1.0,,,,,1,,,,,,1.0,1.0,1.0,,,,1.0,1.0,,,,1.0,,,,1.0,,1.0,,,1.0,1.0,1.0,1.0,,,1.0,1.0,1.0,1.0,,1.0,,1.0,1.0,,1,1.0,,,,1.0,1.0,1.0,1.0,1.0,1.0,,1.0,,,1.0,1.0,1.0,1.0,,,,1.0,1.0,,1.0,1.0,1.0,,,1.0,,1.0,,1.0,,1.0,1.0,1.0,1.0,1.0,1.0,1.0,1.0,1.0,1.0,1.0,1.0,1.0,1.0,1.0,1.0,1.0,1.0,1.0,1.0,1.0,1.0,,,,,,,,,,,,,,,,,,,1.0,,,,,,,,,,,1.0,1.0,,,,,,,,,,,,,,,,,1.0,,
Edgewood Ctr for Children and Families,,1801 Vicente Street,,San Francisco,CA,94116,2923.0,San Francisco,415-681-3211,Intake,415-682-3176,,http://www.edgewood.org,37.7382644,-122.486567,MH,1,,,,,,,,1.0,1.0,1.0,1.0,1.0,1.0,,1.0,,1.0,1.0,,,,1,1.0,1.0,,,,1.0,1.0,,1.0,1.0,,1.0,1.0,1.0,1.0,1.0,1.0,,1.0,,1.0,1.0,,,1.0,1.0,,1.0,,,,,,,1.0,1.0,,,1.0,,,1,,1.0,1.0,,1.0,,1.0,1.0,1.0,1.0,,,,,,1.0,,1.0,,,,,,1.0,1.0,,,,,1.0,1.0,,,,,,,,,,,,,,,,,,,,,,,,,,,,,,,1.0,,,,,,,,,,,,,,,,,,,,,1.0,,,,1.0,1.0,,,1.0,,1.0,,1.0,,1.0,,,,,1.0,,1.0,1.0,,
Center for Discovery,Thousand Oaks,228 Rimrock Road,,Westlake Village,CA,91361,5203.0,Ventura,866-862-3631,,,,http://centerfordiscovery.com/locations/thousand-oaks/,34.1733236,-118.8669169,MH,1,,,1.0,,,,,,1.0,1.0,1.0,1.0,1.0,,,,,,,,,1,,,,,,1.0,,,1.0,1.0,1.0,1.0,1.0,1.0,1.0,1.0,1.0,1.0,1.0,,,,,,,,,1.0,,,,,,,1.0,,,,1.0,,,1,,,1.0,,,,1.0,,1.0,1.0,,,,,,,,,,,,,,,1.0,1.0,,,1.0,,,1.0,,,,,,,,,,,,,,,,,,,,,,,,,,,,,,,,,,,,,,,,,,,,,,,,,,,1.0,,,,,,,,,,,,,,,,,,,,,,,,
BNI Treatment Centers,,30954 Lobo Canyon Road,,Agoura Hills,CA,91301,,Los Angeles,866-801-0085,Intake,888-522-1504,,http://bnitreatment.com/,34.1221216,-118.7959711,MH,1,,1.0,,,,,,,1.0,,1.0,1.0,1.0,1.0,1.0,,1.0,1.0,,,,1,1.0,,,,,1.0,,,,1.0,,,,,,,,,,,1.0,,,,,,1.0,1.0,,,,,,,1.0,,,,1.0,,,1,,,1.0,,,,,1.0,1.0,,,,,,,,,,,,,,,1.0,,,,,1.0,,,1.0,,,,,,,,,,,,,1.0,,,,1.0,,,1.0,1.0,,1.0,1.0,1.0,,,,,,,,,,,,,,,,,,,1.0,,,,,,,1.0,,,,,,,,,,,,,,,,,,,,,,,,
1 Method LLC,1 Method Center,10254 Bannockburn Drive,,Los Angeles,CA,90064,,Los Angeles,310-837-7330,Intake,800-270-1389,,http://methodtreatment.com,34.0343945,-118.4081563,MH,1,,,1.0,,,,,,1.0,1.0,1.0,1.0,1.0,1.0,1.0,,1.0,,,,,1,,,,,,1.0,,,1.0,1.0,1.0,,,,,,,,,,1.0,,1.0,,,1.0,1.0,1.0,1.0,1.0,1.0,1.0,1.0,1.0,1.0,,1.0,,1.0,1.0,1.0,1,1.0,1.0,1.0,1.0,1.0,1.0,1.0,1.0,1.0,1.0,1.0,1.0,1.0,1.0,1.0,1.0,1.0,,1.0,,,1.0,1.0,,1.0,1.0,1.0,,1.0,,,1.0,,,,,1.0,,,,,,,,,,,,1.0,,,,1.0,,,1.0,,,1.0,,,1.0,,,,1.0,1.0,1.0,1.0,1.0,,,,,,1.0,,,,1.0,1.0,1.0,,,1.0,,,,,,,,,,,,,,,,,,,,,,
Mountain Valley Child and Family Servs,,24077 State Highway 49,,Nevada City,CA,95959,8519.0,Nevada,530-265-9057,Intakes,530-966-8831,530-265-9057 x226,http://mountainvalleyfamilyservices.net,39.318855,-121.104678,MH,1,,1.0,,,,,,,1.0,1.0,1.0,1.0,1.0,,1.0,,1.0,1.0,,,,1,,,,,,,1.0,1.0,,1.0,,1.0,1.0,1.0,1.0,,,,,,1.0,,,,,1.0,,1.0,,,,,,,1.0,1.0,,,1.0,,1.0,1,,1.0,1.0,,1.0,1.0,1.0,1.0,1.0,1.0,,,1.0,,,1.0,,1.0,1.0,,,,1.0,1.0,1.0,,,,,1.0,,1.0,,,,,1.0,,,,,,,,1.0,,,,,,1.0,1.0,,,1.0,1.0,,,,,,1.0,,,,1.0,1.0,,,1.0,,,,,,1.0,1.0,,,,,1.0,1.0,,,,,,,,,,,,,,,,,,,,,,,,
Muir Wood Adolescent and,Family Services,343 Haverfield Lane,,Petaluma,CA,94952,1250.0,Sonoma,707-800-5286,Intake,,866-304-5089,http://www.MuirWoodTeen.com,38.246352,-122.666498,MH,1,,1.0,,,,,,,1.0,1.0,1.0,1.0,1.0,1.0,1.0,,1.0,1.0,,,,1,1.0,,,,,1.0,,,,1.0,,,,,,,,,,,,,,,,,1.0,1.0,,,,1.0,,,1.0,,,,1.0,,,1,1.0,,1.0,,1.0,,1.0,1.0,1.0,,,1.0,,1.0,1.0,1.0,1.0,1.0,,1.0,,1.0,,1.0,,,,,1.0,,,1.0,,,,,,,,,,,,,,,,,,,,,,,,,,,1.0,,,1.0,,,,,,,1.0,1.0,,,,,,1.0,,,,,,1.0,1.0,,,,,,,,,,,,,,,,,,,,,,,,
Muir Wood Adolescent and,Family Services,1733 Skillman Lane,,Petaluma,CA,94952,,Sonoma,310-903-1155,Intake,949-324-8033,,http://www.muirwoodteen.com,38.2551766,-122.6767023,MH,1,,1.0,,,,,,,1.0,1.0,1.0,1.0,1.0,1.0,1.0,,1.0,1.0,,,,1,1.0,,,,,1.0,,,,1.0,,,,,,,,,,,,,,,,,1.0,,,,,1.0,,,1.0,,,,1.0,,,1,,,,,,,1.0,1.0,1.0,,,1.0,,1.0,,1.0,1.0,,,,,1.0,,1.0,,,,,1.0,,,1.0,,,,,,,,,,,,,1.0,,1.0,1.0,,,1.0,1.0,,1.0,1.0,1.0,1.0,,,,,1.0,,,,,,,,,,,,,,1.0,,,,,,,1.0,,,,,,,,,,,,,,,,,,,,,,,,
Muir Wood Adolescent and,Family Services,1743 Skillman Lane,,Petaluma,CA,94952,,Sonoma,707-800-5286,Intake,,866-304-5089,http://www.MuirWoodTeen.com,38.2554987,-122.6768821,MH,1,,1.0,,,,,,,1.0,1.0,1.0,1.0,1.0,1.0,1.0,,1.0,1.0,,,,1,1.0,,,,,1.0,,,,1.0,,,,,,,,,,,,,,,,,1.0,1.0,,,,1.0,,,1.0,,,,1.0,,,1,1.0,,1.0,,1.0,,1.0,1.0,1.0,,,1.0,,1.0,1.0,1.0,1.0,1.0,,1.0,,1.0,,1.0,,,,,1.0,,,1.0,,,,,,,,,,,,,,,,,,,,,,,,,,,1.0,,,1.0,,,,,,,1.0,1.0,,,,,,1.0,,,,,,1.0,1.0,,,,,,,,,,,,,,,,,,,,,,,,
Center for Discovery,La Habra,2115 Las Palomas Drive,,La Habra,CA,90631,7761.0,Orange,866-862-3631,,,,http://centerfordiscovery.com/locations/la-habra/,33.9638412,-117.97263,MH,1,,1.0,,,,,,,1.0,1.0,1.0,1.0,1.0,,,,,1.0,,,,1,,,,,,1.0,,,,1.0,1.0,,,,,,,,,,,,,,,,,,,,,,,,,,,,,,,1,,,1.0,,,,1.0,,1.0,1.0,,,,,,,,,,,,,,1.0,,,,,1.0,,,1.0,,,,,,,,,,,,,,,,,,,,,,,,,,,,,,,,,,,,,,,,,,,,,,,,,,,1.0,,,,,,,,,,,,,,,,,,,,,,,,
Center for Discovery,Rancho Palos Verdes,30175 Avenida Tranquila,,Rancho Palos Verdes,CA,90275,,Los Angeles,866-862-3631,,,,http://centerfordiscovery.com/locations/rancho-palos-verdes/,33.7595204,-118.3992862,MH,1,,,1.0,,,,,,1.0,1.0,1.0,1.0,1.0,,,,,,,,,1,,,,,,1.0,,,1.0,1.0,1.0,1.0,1.0,1.0,1.0,1.0,1.0,1.0,1.0,,,,,,,,,,,,,,,,,,,,,,,1,,,1.0,,,,1.0,,1.0,1.0,,,,,,,,,,,,,,,1.0,1.0,,,1.0,,,1.0,,,,,,,,,,,,,,,,,,,,,,,,,,,,,,,,,,,,,,,,,,,,,,,,,,,,,1.0,,,,,,,,,,,,,,,,,,,,,,
Asana Recovery,Madsion,3073 Madison Avenue,,Costa Mesa,CA,92626,,Orange,949-438-4504,,,,http://www.asanarecovery.com,33.6835835,-117.9006186,MH,1,,,1.0,,,,,,1.0,1.0,1.0,1.0,1.0,1.0,1.0,,1.0,,,,,1,1.0,1.0,,,,1.0,,,,1.0,,,,,,,,,,,,,,1.0,,,1.0,1.0,1.0,1.0,1.0,1.0,,1.0,1.0,,,,1.0,1.0,,1,1.0,,1.0,,,,,,,,,1.0,,,,,,,,,,,,1.0,1.0,1.0,1.0,1.0,1.0,,,,,,,,,,,,,,,,,,,,,,,,,,,,,1.0,,,,,1.0,,,1.0,,,,1.0,,,,,,1.0,,,,,,,,,1.0,,,,,,,,,,,,,,,,,,,,,,
Nsight Psychology and Addiction,,4000 Birch Street,Suite 112,Newport Beach,CA,92660,,Orange,949-629-3730,,,,http://www.nsightrecovery.com,33.6641928,-117.8692118,MH,1,,,,,,,,1.0,1.0,1.0,1.0,1.0,1.0,1.0,,,1.0,,,,,1,1.0,1.0,,,,1.0,,,,1.0,1.0,,,,,,,,,,,,,,,1.0,1.0,,,,1.0,1.0,,,1.0,,1.0,,1.0,,1.0,1,,1.0,1.0,,,1.0,1.0,,1.0,,,,,,,1.0,,1.0,,1.0,,,,,1.0,1.0,1.0,,1.0,,,1.0,,,,,,,,,,,,,1.0,,,1.0,,,1.0,1.0,1.0,1.0,1.0,1.0,,,1.0,,1.0,,,,,,1.0,,,,,,,,,1.0,,,,,,,,,1.0,,,,,,,,,,,,,,,,,,,,,,
Oak Grove Center,,24275 Jefferson Avenue,,Murrieta,CA,92562,,Riverside,951-677-5599,,,,http://www.oakgrovecenter.org,33.566775,-117.218059,MH,1,,1.0,,,,,,,1.0,1.0,1.0,1.0,,1.0,1.0,,1.0,1.0,,,,1,1.0,1.0,,,,1.0,,,1.0,1.0,1.0,1.0,1.0,1.0,1.0,1.0,,,,,,,,,1.0,1.0,1.0,1.0,,,,1.0,,,1.0,1.0,,,1.0,,,1,,1.0,1.0,,1.0,1.0,1.0,1.0,1.0,,,,,,,,,1.0,,,,,,1.0,,,,,,1.0,,1.0,,,,,,,,,,,,,1.0,1.0,,,,,1.0,1.0,,1.0,1.0,1.0,1.0,,,,,,,,,,,,,,,,,,,1.0,,,,,,,1.0,,,,1.0,,,,,,,,,,1.0,,,,,,,,,,
Center for Discovery,Del Mar,4421 Carmel Valley Road,,San Diego,CA,92130,2409.0,San Diego,866-862-3631,,,,http://centerfordiscovery.com/locations/del-mar/,32.9470749,-117.1975611,MH,1,,,1.0,,,,,,1.0,1.0,1.0,1.0,1.0,,,,,,,,,1,,,,,,1.0,,,1.0,1.0,1.0,1.0,1.0,1.0,1.0,1.0,1.0,1.0,1.0,,,,,,,,,,,,,,,,,,,,,,,1,,,1.0,,,,1.0,,1.0,1.0,,,,,,,,,,,,,,,1.0,1.0,,,1.0,,,1.0,,,,,,,,,,,,,,,,,,,,,,,,,,,,,,,,,,,,,,,,,,,,,,,,,,,1.0,,,,,,,,,,,,,,,,,,,,,,,,
Center for Discovery,La Jolla,3013 Woodford Drive,,La Jolla,CA,92037,3549.0,San Diego,877-701-7119,,,,http://centerfordiscovery.com/locations/la-jolla/,32.8481304,-117.2393646,MH,1,,,1.0,,,,,,1.0,1.0,1.0,1.0,1.0,,,,,,,,,1,,,,,,1.0,,,,1.0,1.0,,,,,,,,,,,,,,,,,,,,,,,,,,,,,,1.0,1,,,1.0,,,,1.0,,1.0,1.0,,,,,,,,,,,,,,,1.0,1.0,1.0,,1.0,,,1.0,,,,,,,,,,,,,,,,,,,,,,,,,,,,,,,,,,,,,,,,,,,,,,,,,,,,,1.0,,,,,,,,,,,,,,,,,,,,,,
Crestwood Behavioral Health Inc,Crestwood Wellness and Recovery Center,3062 Churn Creek Road,,Redding,CA,96002,2124.0,Shasta,530-221-0976,,,,http://crestwoodbehavioralhealth.com,40.562448,-122.353726,MH,1,,,1.0,,,,,,1.0,,1.0,1.0,1.0,1.0,1.0,,,,,,,1,,,,,,1.0,1.0,,,,,,,,,,1.0,,,1.0,,,,,,1.0,1.0,1.0,,,,,1.0,,1.0,,1.0,,1.0,,,1,,,,1.0,1.0,,1.0,,,,1.0,1.0,,,,1.0,,,,,,1.0,,,1.0,1.0,1.0,,1.0,,,1.0,,1.0,,1.0,1.0,1.0,1.0,1.0,1.0,1.0,1.0,1.0,1.0,1.0,,,1.0,1.0,1.0,1.0,1.0,1.0,1.0,1.0,1.0,,,,,1.0,,,,,,,,,,,,,,1.0,,,,,,1.0,1.0,,,,,,,,,,,,,,,,,,,,,,,,
Reno Behavioral Healthcare Hospital,,6940 Sierra Center Parkway,,Reno,NV,89511,,Washoe,775-393-2201,,,,http://renobehavioral.com,39.463896,-119.776101,MH,1,1.0,,,,,,,,1.0,1.0,1.0,1.0,1.0,1.0,1.0,,1.0,1.0,,,1.0,1,1.0,1.0,,,,1.0,1.0,1.0,,1.0,1.0,,1.0,,,1.0,1.0,,,1.0,1.0,1.0,1.0,,1.0,1.0,1.0,,,,,,1.0,,1.0,1.0,1.0,,,,,1,,,1.0,,1.0,1.0,1.0,1.0,1.0,,,,,,,,1.0,1.0,,,,1.0,,1.0,1.0,1.0,1.0,1.0,1.0,,1.0,1.0,,1.0,,1.0,1.0,,1.0,,1.0,,,,1.0,,1.0,,1.0,,,1.0,1.0,,1.0,1.0,1.0,1.0,,,,1.0,,,,,,,,,1.0,,,,,1.0,,,,,,1.0,1.0,,,,,,,,,,,,,,,,,,,,,,,,
Boulder City Hospital,,901 Adams Boulevard,,Boulder City,NV,89005,,Clark,702-293-4111,,,,http://www.bouldercityhospital.org,35.9676546,-114.8429317,MH,1,,,,,,,,,1.0,,1.0,1.0,,1.0,1.0,,1.0,1.0,,,1.0,1,1.0,1.0,,,,1.0,1.0,1.0,1.0,1.0,1.0,1.0,,,,1.0,1.0,1.0,1.0,1.0,1.0,1.0,,,1.0,1.0,1.0,1.0,1.0,,1.0,1.0,1.0,1.0,1.0,,,1.0,1.0,1.0,,1,,1.0,1.0,1.0,1.0,1.0,1.0,1.0,1.0,1.0,1.0,1.0,1.0,1.0,1.0,1.0,1.0,1.0,1.0,1.0,1.0,1.0,1.0,,,1.0,1.0,1.0,,1.0,,1.0,,,,,,,,,,,,,,,,,,,,,,,,,,,,,,,,,,,,,,,,,1.0,,,,,,,,,,,,,,,,,,,,,,,,,,,,,,,,,,
Youth Consultation Service,,284 Broadway,,Newark,NJ,7104,,Essex,973-485-3314,Intake,973-482-8411,,http://www.ycs.org,40.7601729,-74.1691814,MH,1,,1.0,,,,,,,1.0,1.0,1.0,1.0,,,1.0,,1.0,1.0,,,,1,,1.0,,,,,1.0,,1.0,,,1.0,1.0,,,,,,,,,,,,1.0,1.0,1.0,1.0,,,,,1.0,,1.0,1.0,,,1.0,,1.0,1,,,1.0,,,,,,1.0,,,,,,,1.0,,,,,1.0,,,1.0,1.0,1.0,1.0,,,1.0,,1.0,,,,,,,,,,,,,,,,,1.0,,,,,,,1.0,,,,,,,,,1.0,,,,,,,,,,,1.0,1.0,,,,,,1.0,,,,,,,,,,,,,,,,,,,,,,,,
VA NJ Healthcare System,East Orange Campus,385 Tremont Avenue,,East Orange,NJ,7018,,Essex,973-676-1000 x7110,Intakes,973-676-1000 x1421,908-647-0180 x4511,http://www.accesstocare.va.gov/,40.752661,-74.2361139,MH,1,,,,,,,,,1.0,1.0,1.0,1.0,1.0,1.0,,,1.0,1.0,,,1.0,1,1.0,1.0,1.0,,,,1.0,1.0,,1.0,1.0,,,,,,,,,1.0,1.0,1.0,1.0,1.0,,,1.0,1.0,1.0,,1.0,,1.0,1.0,1.0,,1.0,1.0,1.0,1.0,,1,1.0,1.0,1.0,1.0,1.0,,1.0,1.0,1.0,1.0,1.0,1.0,1.0,1.0,1.0,1.0,1.0,1.0,1.0,1.0,,1.0,1.0,,1.0,1.0,1.0,,,,,1.0,,1.0,,1.0,1.0,1.0,1.0,,1.0,1.0,1.0,1.0,1.0,,,,1.0,,1.0,1.0,1.0,1.0,1.0,1.0,1.0,,,,,1.0,,,,,,,,,,,,,1.0,1.0,,1.0,,,,,1.0,,,,,,,,,,,,,,,,,,,,,,,,
Oaks Integrated Care,,42 Fern Lane,,Hammonton,NJ,8037,,Atlantic,609-567-7335,,,,http://oaksintcare.org/,39.6768698,-74.8620067,MH,1,,,1.0,,,,,,1.0,,1.0,1.0,,,1.0,,,,,,,1,,,,,,,1.0,1.0,,,,,,,,,,,1.0,,,,,,,,1.0,1.0,,,,,,,1.0,,1.0,,1.0,1.0,,1,,,1.0,,,,1.0,,,1.0,,1.0,,,,,,,,,,1.0,,,1.0,1.0,,,,1.0,,1.0,,,,,,,,,,,,,,,,,,,,,,,,,,,,,,,,,,,,,,,,,,,,,,,,,,,,,1.0,,,,,,,,,,,,,,,,,,,,,,
Twin Oaks Community Services,,65 Laurel Lane,,Hammonton,NJ,8037,,Atlantic,609-567-7335,,,,http://www.oaksintcare.org,39.6750603,-74.86239,MH,1,,,1.0,,,,,,1.0,,1.0,1.0,,,1.0,,,,,,,1,,,,,,,1.0,1.0,,,,,,,,,,,,,,,,,,,1.0,1.0,,,,,,,1.0,,1.0,,1.0,1.0,,1,,,1.0,,,,1.0,,,1.0,1.0,1.0,,,,1.0,,1.0,,,,1.0,1.0,,1.0,1.0,,,,1.0,,1.0,,,,,,,,,,,,,,,,,,,,,,,,,,,,,,,,,,,,,,,,,,,,,,,,,,,,,1.0,,,,,,,,,,,,,,,,,,,,,,
Ranch Hope Inc,Strang School,45 Sawmill Road,P.O. Box 325,Alloway,NJ,8001,,Salem,856-935-1555 x433,,,,http://www.ranchhope.org,39.5478165,-75.3597778,MH,1,,1.0,,,,,,,1.0,1.0,1.0,1.0,1.0,1.0,1.0,,1.0,1.0,,,,1,,,,,,,1.0,,,1.0,,,,,,,,,,,,,,,,1.0,1.0,1.0,,,1.0,1.0,,,1.0,1.0,,,1.0,1.0,,1,,,1.0,1.0,,1.0,1.0,1.0,1.0,,1.0,1.0,,,,1.0,,,,,,,,1.0,,,,,,1.0,,1.0,,,,,,,,,,,,,1.0,,,,,1.0,1.0,1.0,1.0,1.0,1.0,1.0,1.0,,,,,,,,,,,,,,,,,,,1.0,,,,,,,1.0,,,,,,,,,,,,,,,,,,,,,,,,
Providence Adolescent,Residential Treatment Program,3210 West 62nd Avenue,,Anchorage,AK,99502,,Anchorage,907-212-2040,,,,http://www.providence.org,61.1642649,-149.9391281,MH,1,,1.0,,,,,,,1.0,1.0,1.0,1.0,1.0,1.0,1.0,,1.0,1.0,,,,1,,,,,,1.0,1.0,,1.0,1.0,,,,,,,,,,,,,,,1.0,,1.0,1.0,,,1.0,,,,1.0,1.0,,,1.0,,1.0,1,,1.0,1.0,,1.0,,1.0,1.0,1.0,1.0,,1.0,,,,1.0,1.0,1.0,,,,1.0,,1.0,1.0,,,,,1.0,,1.0,,,,,,,,,,,,,1.0,,,,,,,1.0,1.0,1.0,1.0,1.0,1.0,,1.0,,,,,,,1.0,,,,,,,,,,1.0,1.0,,,,,,1.0,,,,,,,,,,,,,,,,,,,,,,,,
Veterans Affairs Hines Hospital,,5000 South 5th Avenue,,Hines,IL,60141,,Cook,708-202-8387,Intake,708-202-8387 x23446,,http://www.hines.va.gov/,41.8602113,-87.8407118,MH,1,,,,,,,,,1.0,1.0,1.0,1.0,1.0,1.0,1.0,1.0,1.0,1.0,,,1.0,1,1.0,1.0,1.0,,,,,1.0,1.0,1.0,1.0,,,,,,,,,1.0,1.0,1.0,,,1.0,,1.0,1.0,1.0,,1.0,,,1.0,1.0,,1.0,,1.0,1.0,,1,1.0,1.0,1.0,1.0,1.0,1.0,1.0,1.0,1.0,1.0,1.0,1.0,1.0,1.0,1.0,1.0,1.0,1.0,1.0,1.0,,1.0,1.0,,1.0,1.0,1.0,,,,,1.0,,1.0,,1.0,1.0,,,,,1.0,1.0,1.0,1.0,1.0,1.0,,1.0,1.0,1.0,1.0,1.0,1.0,1.0,1.0,1.0,,,,,1.0,1.0,,,,,,,,,,,,1.0,1.0,,1.0,,,,,1.0,,,,,,,,,,,,,,,,,,,,,,,,
Center for Discovery,Glenview,3737 Lawson Road,,Glenview,IL,60026,1107.0,Cook,866-824-0109,,,,http://centerfordiscovery.com/locations/glenview/,42.1000755,-87.8486446,MH,1,,1.0,,,,,,,1.0,1.0,1.0,1.0,1.0,,,,,1.0,,,,1,,,,,,1.0,,,,1.0,1.0,,,,,,,,,,,,,,,,,,,,,,,,,,,,,,,1,,,1.0,,,,1.0,,1.0,1.0,,,,,,,,,,,,,,1.0,,,,,1.0,,,1.0,,,,,,,,,,,,,,,,,,,,,,,,,,,,,,,,,,,,,,,,,,,,,,,,,,,1.0,,,,,,,,,,,,,,,,,,,,,,,,
Jasper Mountain,,37875 Jasper Lowell Road,,Fall Creek,OR,97438,9751.0,Lane,541-747-1235,,,,http://www.jaspermountain.org,43.9737308,-122.8721457,MH,1,,1.0,,,,,,,1.0,1.0,1.0,1.0,1.0,,1.0,,,,,,,1,1.0,1.0,,,,1.0,1.0,,1.0,1.0,1.0,1.0,1.0,,1.0,1.0,1.0,,,,1.0,,,,,1.0,,1.0,,,,,,,1.0,1.0,,,1.0,,,1,,,1.0,,,,1.0,1.0,1.0,,,,,,,,,,,,1.0,,,1.0,,,,,,1.0,,,,,,,,,,,,,,,1.0,,,,1.0,,,1.0,,,,1.0,,,,,,1.0,,,,,,,,,,,,,,1.0,,,,,,,1.0,,,,,,,,,,,,,,,,,,,,,,,,
Jasper Mountain,SAFE Center,89124 Marcola Road,,Springfield,OR,97478,8780.0,Lane,541-741-7402,,,,http://www.jaspermountain.org,44.086782,-122.953642,MH,1,,1.0,,,,,,,1.0,1.0,1.0,1.0,1.0,,1.0,,,1.0,,,,1,,1.0,,,,1.0,1.0,,1.0,1.0,1.0,1.0,1.0,,1.0,1.0,1.0,,,,1.0,,,,,,,1.0,,,1.0,,,,1.0,1.0,,,1.0,,,1,,1.0,1.0,,,,1.0,1.0,1.0,,,,,,,1.0,,1.0,,,1.0,,,1.0,,,,,,1.0,,,,,,,,,,,,,,,,,,,,,,,,,,,,,,,,,,,,,,,,,,,,,,,,,,,,,1.0,,,,,,,,,,,,,,,,,,,,,,,,
Pioneer Guest Home II Inc,,101 East Main Street,P.O. Box 326,Enterprise,OR,97828,,Wallowa,541-426-4222,,,,https://www.wvcenterforwellness.org,45.425806,-117.277242,MH,1,,,1.0,,,,,,1.0,,1.0,1.0,1.0,1.0,1.0,,1.0,1.0,,,,1,,,,,,1.0,1.0,1.0,1.0,1.0,1.0,1.0,1.0,1.0,,1.0,1.0,,,1.0,1.0,,,,,,1.0,,1.0,,,1.0,1.0,,1.0,,1.0,,1.0,1.0,,1,1.0,1.0,1.0,1.0,1.0,1.0,1.0,1.0,1.0,,1.0,1.0,,1.0,1.0,1.0,1.0,1.0,1.0,,,1.0,1.0,,1.0,1.0,1.0,,1.0,,,1.0,,1.0,,,1.0,,1.0,,,,,,1.0,,,,1.0,,1.0,1.0,,1.0,1.0,1.0,1.0,,,,,,,,,,,,,,,,,,,1.0,,,,,,,1.0,,,,,,,,,,,,,,,,,,,,,,,,
Iowa Lutheran Hospital,Powell Chemical Dependency Center,700 East University Avenue,4th Floor,Des Moines,IA,50316,,Polk,515-263-2424 x1,,,,http://www.unitypoint.org/desmoines/powell-chemical-dependency-center.aspx,41.60142,-93.6097501,MH,1,,,,,,,,,1.0,1.0,1.0,1.0,,,,,1.0,1.0,,,,1,1.0,1.0,,,,1.0,1.0,1.0,,1.0,,,,,,,,,,,1.0,,,,1.0,,1.0,1.0,,,,1.0,1.0,1.0,1.0,,1.0,1.0,1.0,,1.0,1,,,,,,,,1.0,1.0,,,,,1.0,,,,,,,,,,,1.0,1.0,1.0,,,1.0,,,,,,,,,,,,,,,,,,,,,,,,,,,,,1.0,,,1.0,,,,1.0,1.0,,,1.0,,,1.0,,,,,,,,,,1.0,,,,,,,,,,,,,,,,,,,,,,,,
Chatham Oaks RCF,,4515 Melrose Avenue,,Iowa City,IA,52246,,Johnson,319-887-2701,,,,http://www.unitypoint.org,41.6564904,-91.6022232,MH,1,,,1.0,,,,,,1.0,,1.0,,,,,,,,,,,1,,,,,,1.0,1.0,1.0,,,,1.0,,,,,1.0,,,1.0,,,,,,,1.0,1.0,,,,1.0,1.0,1.0,,,1.0,,1.0,1.0,1.0,1,,,1.0,1.0,,1.0,,,,,1.0,1.0,1.0,1.0,1.0,1.0,,1.0,,,,1.0,,,1.0,1.0,1.0,,,1.0,,1.0,,,,,,,,,,,,,,,,,,,,,,,,,,,,,,,,,,1.0,1.0,,,,,,,,,1.0,,,,,,,1.0,,,,,,,,,,,,,,,,,,,,,,,,
Heritage Residence,,2275 South Linn Avenue,P.O. Box 110,New Hampton,IA,50659,,Chickasaw,641-394-2391,Intakes,563-422-5606,563-422-5220 x108,http://inspiringlivesiowa.org,43.0258906,-92.318598,MH,1,,,1.0,,,,,,,,1.0,1.0,,,1.0,,,,,,,1,,,,,,1.0,1.0,,1.0,,,,,,,,1.0,,,,,,,,,,1.0,1.0,1.0,1.0,1.0,1.0,1.0,1.0,1.0,,1.0,,1.0,1.0,,1,1.0,,,,,1.0,,,,,,1.0,,,,1.0,,,,,,,,,1.0,1.0,1.0,,,1.0,,1.0,,1.0,,1.0,1.0,,1.0,,,1.0,,1.0,,,,,1.0,,,1.0,1.0,1.0,1.0,1.0,,,,,,,,,,,,,,,,,,,,1.0,,,,,,,1.0,,,,,,,,,,,,,,,,,,,,,,,,
Center for Discovery,Edmonds,7511 176th Street SW,,Edmonds,WA,98026,5529.0,Snohomish,866-862-3631,,,,http://centerfordiscovery.com/locations/edmonds/,47.8397581,-122.3348485,MH,1,,1.0,,,,,,,1.0,1.0,1.0,1.0,1.0,,,,,1.0,,,,1,,,,,,1.0,,,,1.0,1.0,,,,,,,,,,,,,,,,,,,,,,,,,,,,,,,1,,,1.0,,,,1.0,,1.0,1.0,,,,,,,,,,,,,,1.0,,,,,1.0,,,1.0,,,,,,,,,,,,,,,,,,,,,,,,,,,,,,,,,,,,,,,,,,,,,,,,,,,1.0,,,,,,,,,,,,,,,,,,,,,,,,
Emily Program,Residential Treatment Facility,4 Nickerson Street,Suite 300,Seattle,WA,98109,,King,888-364-5977,,,,http://www.emilyprogram.com,47.6497742,-122.3569317,MH,1,,,1.0,,,,,,1.0,1.0,1.0,1.0,1.0,,1.0,,,,,,,1,,,,,,1.0,1.0,,,1.0,,,,,,,,,,,,,,,1.0,,,,,,,,,,,,,,,,,1,,,1.0,,,,1.0,,1.0,,,,,1.0,,,1.0,1.0,,,,,,,1.0,1.0,1.0,,1.0,,,,,,,,,,,,,,,,1.0,1.0,1.0,1.0,1.0,1.0,1.0,1.0,1.0,1.0,1.0,1.0,1.0,,,,,,,,,,,,,,,,,,,1.0,,,,,,1.0,,,1.0,,,,,,,,,,,,,,,,,,,,,,
Lake Whatcom Center,Agate Heights ALF,3400 Agate Heights Road,,Bellingham,WA,98226,,Whatcom,360-676-6000 x210,Intake,360-676-6000,,http://lwrtc.org,48.765053,-122.369815,MH,1,,,1.0,,,,,,1.0,,1.0,1.0,1.0,1.0,1.0,,1.0,,,,,1,,,,,,1.0,1.0,1.0,1.0,,1.0,1.0,,1.0,,1.0,1.0,1.0,1.0,,1.0,,,,1.0,,1.0,1.0,1.0,1.0,1.0,1.0,1.0,1.0,1.0,,1.0,,1.0,,,1,,,1.0,1.0,1.0,1.0,1.0,1.0,1.0,,1.0,1.0,1.0,1.0,1.0,1.0,1.0,1.0,1.0,,,1.0,1.0,,1.0,1.0,1.0,,,1.0,,1.0,,1.0,1.0,1.0,1.0,1.0,1.0,1.0,1.0,1.0,1.0,1.0,1.0,1.0,1.0,1.0,1.0,1.0,1.0,1.0,1.0,1.0,1.0,1.0,1.0,,,,,,1.0,1.0,,1.0,1.0,,1.0,1.0,1.0,,,,,1.0,1.0,,,,,1.0,,,1.0,,,,,,,,,,,,,,,,,,,,,,
Lake Whatcom Residential and Trt Ctr,Baker Creek Co Occurring RTF,1641 Baker Creek Place,,Bellingham,WA,98226,,Whatcom,360-676-6000,,,,http://lwrtc.org,48.7864703,-122.4569521,MH,1,,,1.0,,,,,,1.0,,1.0,1.0,1.0,1.0,1.0,,1.0,,,,,1,,,,,,1.0,1.0,1.0,1.0,,1.0,1.0,,1.0,,1.0,1.0,1.0,1.0,,1.0,,,,1.0,,1.0,1.0,1.0,1.0,1.0,1.0,1.0,1.0,1.0,,1.0,,1.0,1.0,,1,,,,1.0,1.0,1.0,1.0,1.0,1.0,,1.0,1.0,1.0,1.0,1.0,1.0,1.0,1.0,1.0,,,1.0,1.0,,1.0,1.0,1.0,,,1.0,,1.0,,1.0,1.0,1.0,1.0,1.0,1.0,1.0,1.0,1.0,1.0,1.0,1.0,1.0,1.0,1.0,1.0,1.0,1.0,1.0,1.0,1.0,1.0,1.0,1.0,,,,,,1.0,1.0,,1.0,1.0,,1.0,1.0,1.0,,,,,1.0,1.0,,,,,1.0,,,1.0,,,,,,,,,,,,,,,,,,,,,,
Missouri Girls Town,,8548 Jade Road,,Kingdom City,MO,65262,,Callaway,573-642-5345,,,,http://www.mogirlstown.org,38.936025,-91.8541056,MH,1,,,,1.0,,,,,1.0,1.0,1.0,,1.0,1.0,1.0,,,1.0,,,,1,,,,,,1.0,1.0,1.0,1.0,1.0,,1.0,1.0,1.0,,1.0,1.0,,,,1.0,,,,,,1.0,1.0,,,,1.0,,,1.0,1.0,1.0,,1.0,,1.0,1,,,1.0,,,,1.0,1.0,1.0,,,1.0,,,1.0,1.0,,1.0,1.0,,,,1.0,1.0,1.0,,,,,1.0,,1.0,,,,,,,,,,,,,,,,,,,,,,,,,,,,,,,,,,,,,,,,,,,,,,,,,,,1.0,,,,,,,,,,,,,,,,,,,,,,,,
McCallum Place Eating Disorder Center,,231 West Lockwood Avenue,Suite 201,Saint Louis,MO,63119,,Saint Louis,314-961-1452,,,,http://www.mccallumplace.com,38.5935807,-90.3629567,MH,1,,,,,,,,1.0,1.0,1.0,1.0,1.0,1.0,,1.0,,1.0,1.0,,,,1,1.0,1.0,,,,1.0,,,,1.0,,,,,,,,,,1.0,,,,,,,,,,,,,,,,,,,,,,1,,,,,,,1.0,1.0,,,1.0,,,1.0,,,1.0,,,,,,,1.0,1.0,1.0,1.0,,1.0,,,,,,,,,,,,,,,,,,,,,,,,,,,,,,1.0,,,,,,,,,,,1.0,,,,,,,,,,,,1.0,1.0,,,,,,,,,,,,,,,,,,,,,,,,
VA Saint Louis Healthcare System,,1 Jefferson Barracks Drive,,Saint Louis,MO,63125,,Saint Louis,314-652-4100 x66653,Intake,,800-228-5459 x65090,http://www.stlouis.va.gov,38.494831,-90.2844538,MH,1,,,,,,,,,1.0,1.0,1.0,1.0,1.0,1.0,1.0,1.0,1.0,1.0,,,1.0,1,,1.0,1.0,,,1.0,,,,1.0,,,,,,,,,,1.0,1.0,1.0,,,1.0,,1.0,1.0,1.0,,,,1.0,1.0,1.0,,1.0,1.0,1.0,1.0,,1,1.0,,1.0,,1.0,1.0,1.0,1.0,1.0,1.0,1.0,1.0,1.0,1.0,,1.0,1.0,1.0,1.0,1.0,,1.0,1.0,,1.0,1.0,1.0,,,,,1.0,,1.0,,,1.0,,,,,,,,,,,1.0,1.0,1.0,1.0,1.0,1.0,1.0,1.0,1.0,,1.0,1.0,,,1.0,,,,1.0,1.0,1.0,1.0,1.0,,,,,1.0,1.0,1.0,1.0,,1.0,1.0,1.0,1.0,,,,,,,,,,,,,,,,,,,,,,,,
Marygrove,,2705 Mullanphy Lane,,Florissant,MO,63031,,Saint Louis,314-837-1702,Intakes,314-830-6202,314-830-6200,http://www.marygrovechildren.org,38.823612,-90.35929,MH,1,,1.0,,,,,,,1.0,1.0,1.0,1.0,1.0,,1.0,,1.0,1.0,,,,1,,,,,,1.0,1.0,,1.0,1.0,,1.0,1.0,1.0,1.0,1.0,1.0,,,,,,,,,,1.0,1.0,,,,1.0,,1.0,1.0,1.0,1.0,,1.0,1.0,1.0,1,,,1.0,,,1.0,,1.0,1.0,1.0,,1.0,,,,1.0,,1.0,1.0,1.0,1.0,,,1.0,1.0,,,,,1.0,,1.0,,1.0,,,1.0,,,,,,,,,,,,1.0,,,,,,,1.0,,,,,,1.0,,,,,1.0,,,,,,,,,1.0,,,,,,,1.0,,,,,,,,,,,,,,,,,,,,,,,,
Ozark Center,Turnaround Ranch,1949 Snowberry Lane,,Joplin,MO,64804,,Jasper,417-347-7860,Intake,,417-347-7600,http://www.freemanhealth.com/OzarkCenter,37.0727597,-94.5927676,MH,1,,1.0,,,,,,,1.0,1.0,1.0,1.0,1.0,1.0,1.0,,1.0,1.0,,,,1,,,,,,1.0,1.0,,,1.0,,1.0,1.0,1.0,,,,,,,1.0,,,,1.0,,1.0,1.0,,,,,,,1.0,1.0,,,1.0,,,1,,,1.0,,,,1.0,1.0,1.0,1.0,,,,,,,,1.0,,,,,,1.0,,,,,,1.0,,1.0,,,,,,,,,,,,,1.0,,,,,,,,,,1.0,,,,,,,1.0,1.0,,,,,,,,,,,,,1.0,,,,,,,1.0,,,,,,,,,,,,,,,,,,,,,,,,
